{"type": "FeatureCollection", "features": [{"type": "Feature", "properties": {"name": "Athabasca"}, "geometry": {"type": "MultiLineString", "coordinates": [[[-111.01557, 58.690992], [-111.074972, 58.504801]], [[-111.280386, 58.788453], [-111.208168, 58.719879], [-111.14197, 58.695539], [-111.01557, 58.691147]]]}}, {"type": "Feature", "properties": {"name": "Colorado"}, "geometry": {"type": "MultiLineString", "coordinates": [[[-114.376915, 34.539701], [-114.371024, 34.488489], [-114.30803, 34.432886], [-114.158789, 34.355216], [-114.12507, 34.317182], [-114.125612, 34.286512], [-114.163517, 34.253362]], [[-114.590984, 35.352778], [-114.648526, 35.475923], [-114.662065, 35.54535], [-114.645167, 35.630539]], [[-114.741363, 36.013513], [-114.715757, 36.084981], [-114.669145, 36.121723], [-114.592974, 36.147561], [-114.505279, 36.156424], [-114.406086, 36.148311], [-114.331543, 36.116297], [-114.281572, 36.060332], [-114.232143, 36.031703], [-114.183206, 36.030308], [-114.119437, 36.076661], [-114.061921, 36.175208], [-114.004586, 36.195052], [-113.949473, 36.159757], [-113.759872, 36.00664], [-113.635771, 35.830914]], [[-110.367728, 37.89792], [-110.398811, 37.882598], [-110.421136, 37.832161], [-110.430231, 37.771803], [-110.469918, 37.701523], [-110.540353, 37.626179], [-110.692334, 37.483242], [-110.697708, 37.451823], [-110.722099, 37.405521], [-110.915576, 37.156647], [-111.300565, 37.054069], [-111.430867, 37.003478], [-111.473449, 36.932139]], [[-105.820796, 40.184602], [-105.861362, 40.16468]]]}}, {"type": "Feature", "properties": {"name": "Columbia"}, "geometry": {"type": "MultiLineString", "coordinates": [[[-118.072167, 48.663903], [-118.174461, 48.51213], [-118.198465, 48.404255], [-118.168182, 48.232405]], [[-118.092476, 49.801508], [-118.130433, 49.663997], [-118.127952, 49.573874], [-118.09736, 49.48375], [-118.01385, 49.403548], [-117.90719, 49.34164]], [[-117.905718, 50.682023], [-117.916518, 50.464775], [-117.892488, 50.338685], [-117.837246, 50.231301], [-117.827273, 50.159006], [-117.880189, 50.103144]], [[-117.517085, 51.659224], [-117.872748, 51.870219]], [[-118.52661, 52.102091], [-118.366206, 52.089973]]]}}, {"type": "Feature", "properties": {"name": "Klamath"}, "geometry": {"type": "LineString", "coordinates": [[-121.921209, 42.475134], [-121.915731, 42.41891], [-121.809355, 42.251246]]}}, {"type": "Feature", "properties": {"name": "La Grande Rivi\u00e8re"}, "geometry": {"type": "MultiLineString", "coordinates": [[[-70.843241, 53.427023], [-70.948429, 53.439348], [-70.991398, 53.468365], [-71.007211, 53.518181], [-71.040542, 53.555026], [-71.116842, 53.590786]], [[-72.033763, 53.597917], [-71.925708, 53.571562], [-71.871421, 53.583551], [-71.816541, 53.645925]], [[-74.433332, 53.684527], [-74.697115, 53.631455], [-74.851989, 53.628045], [-74.965315, 53.64763], [-75.616852, 53.674088], [-75.80206, 53.664167], [-75.894664, 53.710469], [-76.664178, 53.668352], [-77.03984, 53.677189], [-77.196394, 53.698893], [-77.311064, 53.731785], [-77.420282, 53.797905]]]}}, {"type": "Feature", "properties": {"name": "Mackenzie"}, "geometry": {"type": "LineString", "coordinates": [[-117.668109, 61.307834], [-117.221212, 61.150402], [-116.826455, 61.082422], [-116.334883, 61.051468], [-115.995989, 61.048367], [-115.809747, 61.073223], [-115.501911, 61.156784], [-115.072376, 61.299153], [-114.569151, 61.339254], [-113.703623, 61.246055]]}}, {"type": "Feature", "properties": {"name": "Madison"}, "geometry": {"type": "LineString", "coordinates": [[-111.099673, 44.756519], [-111.188996, 44.771195], [-111.241912, 44.799643], [-111.309143, 44.868424]]}}, {"type": "Feature", "properties": {"name": "Mississippi"}, "geometry": {"type": "MultiLineString", "coordinates": [[[-94.326485, 47.405634], [-94.201661, 47.45731], [-94.143576, 47.46408], [-94.094122, 47.43279]], [[-94.50681, 47.456406], [-94.63706, 47.439999]]]}}, {"type": "Feature", "properties": {"name": "Missouri"}, "geometry": {"type": "MultiLineString", "coordinates": [[[-99.364885, 43.990907], [-99.327601, 43.893962], [-99.353387, 43.81761], [-99.429817, 43.729476], [-99.441909, 43.674492], [-99.38969, 43.652685], [-99.346618, 43.599458], [-99.312718, 43.514864], [-99.196084, 43.414818], [-98.996717, 43.299373], [-98.89202, 43.224959], [-98.881995, 43.191679], [-98.797633, 43.14623], [-98.559663, 43.059878]], [[-111.51572, 46.362493], [-111.539982, 46.469076], [-111.58538, 46.543852], [-111.697311, 46.661597]], [[-100.777228, 46.713325], [-100.625454, 46.60837], [-100.568507, 46.513337], [-100.555846, 46.393163], [-100.570936, 46.287459], [-100.61375, 46.196199], [-100.556621, 46.041169], [-100.399525, 45.822268], [-100.368597, 45.705221], [-100.368623, 45.67375], [-100.433115, 45.612565], [-100.438257, 45.561199], [-100.433115, 45.534844], [-100.341932, 45.448492], [-100.297206, 45.315891], [-100.301547, 45.133628], [-100.320822, 45.053116], [-100.348004, 45.036838], [-100.375082, 45.033324], [-100.402497, 44.992861], [-100.409783, 44.918085], [-100.443812, 44.853955], [-100.504583, 44.80047], [-100.583287, 44.783107], [-100.679921, 44.801813], [-100.691264, 44.79463], [-100.696587, 44.776156], [-100.65938, 44.734789], [-100.635376, 44.679573], [-100.633258, 44.61999], [-100.608556, 44.578468], [-100.561221, 44.555058], [-100.555691, 44.529995], [-100.562151, 44.50408], [-100.536364, 44.476304], [-100.41787, 44.449535], [-100.393712, 44.43442]], [[-101.40011, 47.505783], [-101.42786, 47.551723], [-101.548757, 47.555754], [-101.772051, 47.533275], [-101.976276, 47.547227], [-102.161381, 47.597663], [-102.268791, 47.668693], [-102.298505, 47.760315], [-102.345375, 47.799408], [-102.409377, 47.785972], [-102.491025, 47.794189], [-102.590347, 47.823955], [-102.619906, 47.880954], [-102.579702, 47.965031], [-102.61448, 48.037973], [-102.724189, 48.099726], [-102.872759, 48.137424], [-103.060215, 48.151066], [-103.179381, 48.136184], [-103.230257, 48.092724], [-103.308469, 48.059237], [-103.413992, 48.035621], [-103.496235, 48.053786], [-103.555198, 48.113678], [-103.631318, 48.11497], [-103.772317, 48.027301]], [[-106.405644, 48.020325], [-106.51941, 47.885992], [-106.59987, 47.821939], [-106.879336, 47.707011], [-107.040463, 47.693885], [-107.261587, 47.705667], [-107.384628, 47.693937], [-107.409588, 47.658642], [-107.473228, 47.644844], [-107.57547, 47.652544], [-107.688693, 47.608309], [-107.812819, 47.512087], [-107.887699, 47.50201], [-107.940202, 47.58123], [-108.020404, 47.597974], [-108.196336, 47.601591]]]}}, {"type": "Feature", "properties": {"name": "Peace"}, "geometry": {"type": "MultiLineString", "coordinates": [[[-122.221707, 56.021232], [-122.482208, 56.112131], [-122.690748, 56.123525], [-122.934144, 56.08575], [-123.087753, 56.046347], [-123.151625, 56.005316], [-123.32257, 55.999683], [-123.600641, 56.0295], [-123.797244, 56.033118], [-123.912379, 56.010638], [-124.083092, 56.084794], [-124.309332, 56.255636], [-124.454103, 56.388548], [-124.517407, 56.483478], [-124.620708, 56.587451], [-124.83563, 56.756924]], [[-113.823383, 58.710215], [-113.713519, 58.669262]]]}}, {"type": "Feature", "properties": {"name": "Rio Grande"}, "geometry": {"type": "MultiLineString", "coordinates": [[[-99.456508, 27.056618], [-99.30246, 26.884716], [-99.229932, 26.761933], [-99.172081, 26.564141]], [[-101.038969, 29.460398], [-101.303527, 29.634083]], [[-107.293445, 32.910369], [-107.280811, 33.114284]], [[-107.181411, 33.173195], [-107.16999, 33.355742]]]}}, {"type": "Feature", "properties": {"name": "Sacramento"}, "geometry": {"type": "LineString", "coordinates": [[-122.369218, 40.763352], [-122.410611, 40.721442]]}}, {"type": "Feature", "properties": {"name": "San Juan"}, "geometry": {"type": "LineString", "coordinates": [[-84.769807, 11.117539], [-84.977753, 11.207482], [-85.253163, 11.452531], [-85.871368, 12.097763]]}}, {"type": "Feature", "properties": {"name": "Saskatchewan"}, "geometry": {"type": "MultiLineString", "coordinates": [[[-99.229622, 53.1851], [-98.415848, 53.354056], [-98.082457, 53.436377], [-97.913604, 53.518646]], [[-100.322501, 53.592543], [-100.163157, 53.503246], [-100.06554, 53.405061], [-99.97645, 53.26817], [-99.852323, 53.212308], [-99.693134, 53.237474], [-99.54273, 53.227372], [-99.330288, 53.159417]], [[-103.421227, 53.652048], [-103.579667, 53.629001], [-103.697102, 53.586187], [-103.890914, 53.480767]], [[-102.437101, 53.981589], [-102.380619, 53.96637]]]}}, {"type": "Feature", "properties": {"name": "Snake"}, "geometry": {"type": "MultiLineString", "coordinates": [[[-113.316282, 42.653624], [-113.472216, 42.675018]], [[-112.863674, 42.813046], [-112.639527, 43.023472]], [[-111.047867, 43.20651], [-111.093394, 43.233718], [-111.185947, 43.338285]]]}}, {"type": "Feature", "properties": {"name": "Tennessee"}, "geometry": {"type": "MultiLineString", "coordinates": [[[-86.898515, 34.574763], [-87.241801, 34.754081], [-87.399595, 34.818624], [-87.486308, 34.828185], [-87.572401, 34.818082], [-87.700455, 34.773382]], [[-87.9754, 35.945248], [-88.003641, 35.961526], [-87.991652, 36.011291], [-87.948812, 36.099967], [-87.959406, 36.215774], [-88.023485, 36.358711], [-88.055886, 36.483562], [-88.056713, 36.590325], [-88.11366, 36.738171], [-88.283288, 37.021513]]]}}, {"type": "Feature", "properties": {"name": "Teslin"}, "geometry": {"type": "LineString", "coordinates": [[-132.095394, 59.607111], [-132.352639, 59.920658], [-132.545186, 60.068892], [-132.758764, 60.156432], [-132.96038, 60.262265], [-133.244833, 60.448559]]}}, {"type": "Feature", "properties": {"name": "Thelon"}, "geometry": {"type": "MultiLineString", "coordinates": [[[-104.833596, 63.071499], [-104.729261, 63.128137], [-104.697299, 63.177694], [-104.705722, 63.26973]], [[-96.273369, 64.301398], [-95.447683, 64.157893], [-95.048896, 64.1581], [-94.811287, 64.12606], [-94.601894, 64.061878], [-94.42914, 64.041363], [-94.224967, 64.076193]], [[-101.811144, 64.411263], [-101.536226, 64.49317]], [[-97.103266, 64.761319], [-97.162978, 64.714758], [-97.292144, 64.716308], [-97.510632, 64.750467], [-97.773174, 64.740519], [-98.079822, 64.686517], [-98.264074, 64.665924], [-98.325982, 64.67874], [-98.382155, 64.651739], [-98.432591, 64.584947], [-98.492794, 64.55513], [-98.562764, 64.562261], [-98.686606, 64.539472], [-98.86427, 64.486813], [-99.003409, 64.490844], [-99.104049, 64.551693], [-99.293133, 64.582828], [-99.570635, 64.584327], [-99.789226, 64.603034], [-99.948803, 64.639052], [-100.088381, 64.633445], [-100.207961, 64.586291], [-100.399577, 64.573061], [-100.795082, 64.604119]]]}}, {"type": "Feature", "properties": {"name": null}, "geometry": {"type": "MultiLineString", "coordinates": [[[-103.219508, 61.681042], [-103.192223, 61.642982], [-103.224004, 61.609082], [-103.305756, 61.566656], [-103.371824, 61.500484], [-103.447427, 61.365609]], [[-102.919371, 62.318522], [-102.908881, 62.281108], [-102.862476, 62.259508], [-102.776693, 62.24124], [-102.727032, 62.21535], [-102.713596, 62.181786], [-102.783385, 62.130265], [-102.936425, 62.06076], [-103.049131, 61.978543], [-103.157677, 61.836226]], [[-100.551996, 62.355109], [-100.074377, 62.226951], [-99.840541, 62.213257], [-99.616653, 62.300435]], [[-101.16276, 62.366684], [-100.734828, 62.355522]], [[-101.83104, 62.520008], [-101.846543, 62.450659], [-101.82626, 62.38968], [-101.775384, 62.313949], [-101.654022, 62.294544], [-101.366262, 62.34989]], [[-98.349676, 62.61561], [-98.239915, 62.716611], [-98.082406, 62.75493], [-97.840663, 62.764283], [-97.69739, 62.82154], [-97.630159, 62.979309]], [[-101.529404, 62.664031], [-101.537233, 62.790896], [-101.580642, 62.86159], [-101.660017, 62.918537], [-101.78342, 62.941378], [-102.034671, 62.924583]], [[-102.660369, 62.75958], [-102.680109, 62.69377], [-102.665175, 62.642094], [-102.62218, 62.582614], [-102.634376, 62.517347], [-102.735481, 62.410764]], [[-97.459007, 63.157463], [-97.287183, 63.514108]], [[-95.878302, 63.656477], [-96.301067, 63.612965], [-96.569449, 63.608004], [-96.951906, 63.636633]], [[-95.497473, 64.050664], [-95.44745, 64.157996]]]}}, {"type": "Feature", "properties": {"name": "Allegheny"}, "geometry": {"type": "LineString", "coordinates": [[-77.860048, 41.831866], [-77.998929, 41.781119], [-78.083058, 41.770732], [-78.196591, 41.790266], [-78.330071, 41.877754], [-78.366813, 41.942246], [-78.351233, 42.012836], [-78.419833, 42.059242], [-78.572589, 42.081437], [-78.673616, 42.109601], [-78.722967, 42.143733], [-78.796606, 42.127506], [-78.894533, 42.060947], [-78.954633, 41.984776], [-78.976853, 41.898993], [-79.058812, 41.84879], [-79.200509, 41.834165], [-79.307893, 41.789181], [-79.380963, 41.713837], [-79.417033, 41.649913], [-79.415509, 41.571158], [-79.452432, 41.505891], [-79.513255, 41.480104], [-79.610303, 41.47212], [-79.699238, 41.447135], [-79.780009, 41.405225], [-79.810239, 41.373547], [-79.789982, 41.352205], [-79.797837, 41.327607], [-79.833855, 41.299857], [-79.816415, 41.2642], [-79.745566, 41.220688], [-79.681513, 41.154698], [-79.624256, 41.066331], [-79.603844, 41.012122], [-79.620199, 40.992124], [-79.587462, 40.965924], [-79.522763, 40.938535], [-79.51496, 40.905617], [-79.542555, 40.823762], [-79.698256, 40.636796], [-79.829799, 40.519413], [-79.946174, 40.456084], [-79.990874, 40.447712]]}}, {"type": "Feature", "properties": {"name": "Arkansas"}, "geometry": {"type": "LineString", "coordinates": [[-91.077148, 33.796697], [-91.122159, 33.824499], [-91.14965, 33.863902], [-91.167014, 33.921935], [-91.216649, 33.954517], [-91.298582, 33.961648], [-91.322947, 33.974128], [-91.342662, 34.003816], [-91.386509, 34.005418], [-91.418678, 34.026244], [-91.439142, 34.066293], [-91.487511, 34.090994], [-91.563734, 34.100296], [-91.68246, 34.153109], [-91.843639, 34.249486], [-91.920689, 34.271138], [-91.938646, 34.266849], [-91.973011, 34.274859], [-92.016574, 34.315942], [-92.108972, 34.44751], [-92.155145, 34.566366], [-92.155145, 34.672509], [-92.225244, 34.756354], [-92.365468, 34.817901], [-92.446832, 34.876993], [-92.469363, 34.93363], [-92.506415, 34.972439], [-92.558092, 34.99342], [-92.576643, 35.034632], [-92.562174, 35.096075], [-92.594523, 35.118813], [-92.713302, 35.094861], [-92.83115, 35.16142], [-92.930369, 35.183951], [-93.050258, 35.184674], [-93.192833, 35.244464], [-93.358146, 35.36332], [-93.521366, 35.414996], [-93.682493, 35.399442], [-93.796569, 35.420732], [-93.863645, 35.478817], [-93.957515, 35.494216], [-94.078231, 35.466854], [-94.139442, 35.434065], [-94.141096, 35.395824], [-94.162076, 35.373319], [-94.202358, 35.36655], [-94.267522, 35.385334], [-94.35762, 35.429621], [-94.429657, 35.415125], [-94.483607, 35.341822], [-94.529263, 35.313659], [-94.566574, 35.330712], [-94.60192, 35.325131], [-94.635303, 35.296916], [-94.666025, 35.299706], [-94.694034, 35.333451], [-94.791599, 35.375309], [-94.958669, 35.425228], [-95.074269, 35.488299], [-95.138373, 35.564522], [-95.190076, 35.603486], [-95.22935, 35.605191], [-95.244646, 35.636921], [-95.236016, 35.698674], [-95.251261, 35.746501], [-95.290431, 35.780452], [-95.388255, 35.794792], [-95.544679, 35.789573], [-95.629739, 35.81616], [-95.643381, 35.874555], [-95.721464, 35.924939], [-95.86404, 35.967314], [-95.958246, 36.029041], [-96.004083, 36.110148], [-96.084414, 36.151618], [-96.199239, 36.153478], [-96.259778, 36.173916], [-96.266031, 36.212958], [-96.31564, 36.256082], [-96.408658, 36.303314], [-96.477026, 36.321943], [-96.52077, 36.31197], [-96.541724, 36.331943], [-96.539864, 36.381862], [-96.577975, 36.414935], [-96.656084, 36.431265], [-96.710913, 36.47258], [-96.742436, 36.538907], [-96.766982, 36.54224], [-96.806489, 36.531801], [-96.865477, 36.493613], [-96.920719, 36.468937], [-96.959683, 36.471934], [-96.985728, 36.486455], [-96.998957, 36.5125], [-96.978881, 36.541697], [-96.94356, 36.566502], [-96.940098, 36.578646], [-96.957461, 36.59079], [-97.000482, 36.594769], [-97.040557, 36.619057], [-97.052959, 36.664481], [-96.993325, 36.70639], [-96.861705, 36.744812], [-96.83597, 36.766051], [-96.837701, 36.781683], [-96.877001, 36.797444], [-96.913407, 36.866096], [-96.932192, 36.981076], [-96.985806, 37.05841], [-97.074276, 37.098046], [-97.134608, 37.189332], [-97.166854, 37.332192], [-97.236669, 37.499184], [-97.344053, 37.690232], [-97.694781, 37.925386], [-98.288853, 38.204645], [-98.633121, 38.34598], [-98.727586, 38.349339], [-98.853625, 38.308205], [-99.011238, 38.222525], [-99.217892, 38.054783], [-99.473561, 37.804876], [-99.697785, 37.696872], [-99.986966, 37.747722], [-100.776065, 37.934997], [-101.127388, 37.97099], [-101.30394, 37.918151], [-101.626608, 37.949777], [-102.095391, 38.065868], [-102.558877, 38.118087], [-103.017066, 38.10646], [-103.319941, 38.080983], [-103.467477, 38.041787], [-103.593878, 38.047626], [-103.699143, 38.098553], [-103.832597, 38.136484], [-104.075063, 38.173975], [-104.237224, 38.238028], [-104.410598, 38.259836], [-104.64924, 38.26074], [-104.825844, 38.297921], [-104.940359, 38.371482], [-105.092779, 38.4252], [-105.283077, 38.4591], [-105.470198, 38.450625], [-105.654114, 38.399724], [-105.832243, 38.425097], [-106.004558, 38.526744], [-106.089359, 38.610615], [-106.086568, 38.676761], [-106.135351, 38.801818], [-106.285807, 39.077718], [-106.380762, 39.222361]]}}, {"type": "Feature", "properties": {"name": "Athabasca"}, "geometry": {"type": "MultiLineString", "coordinates": [[[-117.574549, 52.170614], [-117.543388, 52.208958], [-117.551553, 52.271177], [-117.644726, 52.455558], [-117.673613, 52.537052], [-117.726685, 52.57829], [-117.813527, 52.606402], [-117.863963, 52.647304], [-117.877967, 52.70097], [-117.925794, 52.756858], [-118.007443, 52.814864], [-118.045115, 52.872199], [-118.038707, 52.928785], [-118.051833, 52.977361], [-118.084492, 53.017901], [-118.036045, 53.113192], [-117.906544, 53.263183], [-117.679246, 53.415345], [-117.354149, 53.56965], [-117.184289, 53.676362], [-117.169638, 53.73548], [-117.172558, 53.775271], [-117.193022, 53.795735], [-117.171628, 53.839479], [-117.108324, 53.906529], [-116.923504, 54.010244], [-116.617166, 54.150674], [-116.414258, 54.228318], [-116.314833, 54.243253], [-116.132596, 54.224442], [-115.867599, 54.171939], [-115.614514, 54.148736], [-115.373391, 54.154834], [-115.175522, 54.200129], [-115.020907, 54.284594], [-114.858746, 54.331361], [-114.68904, 54.340404], [-114.535768, 54.390375], [-114.398929, 54.481326], [-114.332189, 54.565093], [-114.3356, 54.641755], [-114.265294, 54.80358], [-114.049312, 55.174152]], [[-114.042465, 55.167951], [-113.759898, 55.22849], [-113.598978, 55.171697], [-113.465549, 55.017753], [-113.412555, 54.901171], [-113.440047, 54.821951], [-113.410462, 54.770817], [-113.323749, 54.74777], [-113.258533, 54.772936], [-113.214815, 54.846317], [-113.077408, 54.908948], [-112.846414, 54.960909], [-112.733475, 55.000467], [-112.738643, 55.027649], [-112.772, 55.049638], [-112.833598, 55.066407], [-112.84967, 55.115887], [-112.820162, 55.197975], [-112.774325, 55.256472], [-112.712107, 55.291302], [-112.707585, 55.384992], [-112.760734, 55.537489], [-112.739702, 55.647663], [-112.644514, 55.715566], [-112.613973, 55.788946], [-112.64808, 55.867805], [-112.658312, 55.946611], [-112.644669, 56.025444], [-112.610382, 56.098204], [-112.555476, 56.164944], [-112.579505, 56.25574], [-112.682548, 56.370565], [-112.649966, 56.46397], [-112.481759, 56.535955], [-112.256502, 56.572775], [-111.974167, 56.57448], [-111.727981, 56.614917], [-111.517865, 56.694137], [-111.422573, 56.797851], [-111.442107, 56.92606], [-111.487686, 57.023496], [-111.559206, 57.090159], [-111.612174, 57.169198], [-111.646591, 57.26064], [-111.657339, 57.336656], [-111.64442, 57.397324], [-111.570394, 57.512976], [-111.435234, 57.683611], [-111.380819, 57.807609], [-111.407122, 57.884968], [-111.399112, 57.95052], [-111.356815, 58.004315], [-111.347642, 58.047775], [-111.371569, 58.081003], [-111.377486, 58.12069], [-111.365316, 58.166889], [-111.391051, 58.206938], [-111.454664, 58.240786], [-111.496884, 58.2936], [-111.517658, 58.365275], [-111.514221, 58.412249], [-111.486523, 58.43447], [-111.371698, 58.448267], [-111.169746, 58.453693], [-111.070321, 58.468473], [-111.074972, 58.504801]], [[-111.280386, 58.788453], [-111.199977, 58.891961], [-111.232585, 58.946118], [-111.410765, 59.005055]]]}}, {"type": "Feature", "properties": {"name": "Chixoy"}, "geometry": {"type": "LineString", "coordinates": [[-91.27817, 15.017482], [-91.263907, 15.157447], [-91.302561, 15.236641], [-91.295843, 15.270231], [-91.256569, 15.284649], [-91.046944, 15.308058], [-90.881321, 15.287568], [-90.676759, 15.235763], [-90.555191, 15.225066], [-90.492455, 15.285734], [-90.482637, 15.31581], [-90.533977, 15.346686], [-90.646529, 15.37839], [-90.676372, 15.427121], [-90.623533, 15.492931], [-90.61144, 15.55794], [-90.640069, 15.622199], [-90.685958, 15.66044], [-90.749158, 15.672661], [-90.790112, 15.696717], [-90.80887, 15.73258], [-90.789388, 15.817226], [-90.731666, 15.950706], [-90.637201, 16.019229], [-90.505969, 16.022898], [-90.446851, 16.070596], [-90.459873, 16.162373], [-90.450132, 16.261385], [-90.416982, 16.351302], [-90.416982, 16.390989]]}}, {"type": "Feature", "properties": {"name": "Colorado"}, "geometry": {"type": "MultiLineString", "coordinates": [[[-114.720951, 32.724489], [-114.788001, 32.564808], [-114.839316, 32.504321], [-114.897297, 32.489826], [-114.959076, 32.41983], [-115.024627, 32.294308], [-115.093047, 32.212969], [-115.164309, 32.175711], [-115.198596, 32.124241], [-115.195909, 32.058457], [-115.186943, 32.043574], [-115.172887, 32.045228], [-115.15294, 32.036288], [-115.125655, 31.988203], [-115.092788, 31.964638], [-115.035195, 31.966085], [-114.98109, 31.917664], [-114.933599, 31.90074]], [[-114.163517, 34.253362], [-114.329321, 34.142025], [-114.418282, 34.051152], [-114.509051, 33.903926], [-114.495099, 33.784656], [-114.499259, 33.685877], [-114.521557, 33.607613], [-114.556, 33.535628], [-114.602612, 33.469895], [-114.651162, 33.430621], [-114.701701, 33.417805], [-114.719426, 33.33086], [-114.704388, 33.169784], [-114.648087, 33.071754], [-114.550548, 33.036795], [-114.490861, 32.98362], [-114.469002, 32.912307], [-114.477529, 32.842001], [-114.516467, 32.772754], [-114.582174, 32.734721], [-114.720899, 32.724489]], [[-114.590984, 35.352778], [-114.610932, 34.907404], [-114.557472, 34.794569], [-114.397999, 34.589698], [-114.378879, 34.540631]], [[-114.741363, 36.013513], [-114.73232, 35.98367], [-114.687103, 35.917343], [-114.677077, 35.729809], [-114.650128, 35.683507], [-114.645167, 35.630539]], [[-112.876386, 36.280421], [-113.206289, 36.124204], [-113.295585, 36.047697], [-113.324834, 35.994702], [-113.323129, 35.835358], [-113.355556, 35.764045], [-113.422012, 35.762417], [-113.579237, 35.801329], [-113.635694, 35.830836]], [[-111.473449, 36.932139], [-111.590832, 36.849534], [-111.682764, 36.747706], [-111.788391, 36.599136], [-111.851953, 36.487954], [-111.873553, 36.41416], [-111.86482, 36.320006], [-111.825753, 36.205594], [-111.834434, 36.125857], [-111.890762, 36.080795], [-111.995019, 36.072837], [-112.147154, 36.101983], [-112.256166, 36.151437], [-112.322105, 36.221149], [-112.376598, 36.246108], [-112.419696, 36.226265], [-112.459306, 36.228745], [-112.495376, 36.253601], [-112.4992, 36.288121], [-112.470778, 36.332356], [-112.467419, 36.365946], [-112.489175, 36.388787], [-112.532583, 36.400647], [-112.597695, 36.401525], [-112.693038, 36.371579], [-112.881373, 36.280421]], [[-105.861362, 40.16468], [-106.125791, 40.092695], [-106.284644, 40.09099], [-106.401123, 40.062103], [-106.4821, 40.018514], [-106.594806, 39.922654], [-106.638369, 39.894077], [-106.676196, 39.889891], [-106.726322, 39.920251], [-106.79314, 39.924437], [-106.876649, 39.902474], [-106.969408, 39.828112], [-107.071366, 39.701375], [-107.132034, 39.64373], [-107.235387, 39.602389], [-107.540795, 39.578902], [-107.733729, 39.579187], [-107.846719, 39.556759], [-107.944078, 39.511697], [-108.106083, 39.410179], [-108.242328, 39.314551], [-108.314029, 39.178307], [-108.433557, 39.099423], [-108.557864, 39.089862], [-108.801105, 39.183965], [-108.866864, 39.200502], [-108.952026, 39.198383], [-109.050625, 39.141022], [-109.195577, 39.032889], [-109.26472, 38.935143], [-109.30632, 38.811843], [-109.362854, 38.734173], [-109.434271, 38.702212], [-109.498737, 38.651207], [-109.556279, 38.581185], [-109.595656, 38.553771], [-109.614156, 38.561419], [-109.634517, 38.546175], [-109.64847, 38.485351], [-109.67038, 38.452847], [-109.700146, 38.448661], [-109.722987, 38.414296], [-109.738903, 38.349753], [-109.784534, 38.279369], [-109.897447, 38.165164], [-110.130921, 37.961766], [-110.248459, 37.894948], [-110.367573, 37.89792]], [[-105.845575, 40.404097], [-105.816404, 40.215298], [-105.820641, 40.184912]]]}}, {"type": "Feature", "properties": {"name": "Columbia"}, "geometry": {"type": "MultiLineString", "coordinates": [[[-122.149929, 45.593755], [-122.202535, 45.591068], [-122.560963, 45.625071], [-122.649847, 45.627448], [-122.725914, 45.67375], [-122.74643, 45.749688], [-122.843375, 45.978098], [-122.941999, 46.11486], [-123.042277, 46.160025], [-123.120903, 46.178784], [-123.220587, 46.153617]], [[-118.168182, 48.232405], [-118.231951, 48.085592], [-118.28417, 48.035001], [-118.346078, 48.031694], [-118.367679, 47.99583], [-118.348869, 47.927411], [-118.351453, 47.878525], [-118.375327, 47.849173], [-118.433308, 47.857183], [-118.525344, 47.902554], [-118.665439, 47.926946], [-118.853592, 47.930356], [-118.982577, 47.981904], [-119.05234, 48.081613], [-119.22835, 48.100889], [-119.510503, 48.039704], [-119.681087, 48.030454], [-119.739998, 48.073035], [-119.801028, 48.08474], [-119.864228, 48.065542], [-119.886579, 48.028903], [-119.86813, 47.974746], [-119.870481, 47.928858], [-119.893632, 47.891186], [-119.969183, 47.813103], [-120.040316, 47.783182], [-120.139948, 47.76277], [-120.21382, 47.693472], [-120.26193, 47.575236], [-120.273454, 47.486921], [-120.248391, 47.428578], [-120.193976, 47.381734], [-120.068376, 47.328817], [-120.068247, 47.275358], [-120.048817, 47.244584], [-120.010059, 47.218591], [-119.99745, 47.176139], [-120.011041, 47.117279], [-119.991663, 46.985349], [-119.939366, 46.780452], [-119.837874, 46.674206], [-119.687185, 46.666661], [-119.576546, 46.680614], [-119.505956, 46.716012], [-119.41746, 46.678753], [-119.311058, 46.568786], [-119.2561, 46.456183], [-119.252586, 46.341022], [-119.201117, 46.268546], [-119.084586, 46.232682], [-119.036062, 46.206482], [-118.932451, 46.094861], [-118.924932, 46.079797], [-118.93121, 46.063442], [-118.958832, 46.038379], [-119.049911, 45.981483], [-119.177345, 45.945077], [-119.429113, 45.934173], [-119.934276, 45.837874], [-120.156045, 45.762168], [-120.351434, 45.725168], [-120.715779, 45.689821], [-121.045242, 45.639049], [-121.184277, 45.643778], [-121.242697, 45.687031], [-121.402119, 45.711835], [-121.662517, 45.71814], [-121.882012, 45.68946], [-122.085127, 45.602643], [-122.149903, 45.593858]], [[-117.907113, 49.341588], [-117.721284, 49.330969], [-117.676403, 49.275494], [-117.710561, 49.171624], [-117.701053, 49.097985], [-117.64793, 49.054525], [-117.716892, 48.97453], [-117.907914, 48.857948], [-118.020982, 48.765603], [-118.073563, 48.66349]], [[-117.880189, 50.103144], [-117.917396, 50.092369], [-117.924838, 50.06449], [-117.914916, 50.015914], [-117.949513, 49.970723], [-118.028682, 49.928865], [-118.074312, 49.881348], [-118.092476, 49.801508]], [[-115.865429, 50.287473], [-116.08141, 50.591486], [-116.224037, 50.758401], [-116.365217, 50.889556], [-116.544638, 51.009962], [-116.762299, 51.119671], [-116.931488, 51.244159], [-117.0521, 51.383479], [-117.182842, 51.470967], [-117.323712, 51.506624], [-117.424894, 51.558145], [-117.517085, 51.659224]], [[-117.872748, 51.870219], [-118.366206, 52.089973]], [[-118.52661, 52.102091], [-118.581258, 52.051888], [-118.595314, 51.998532], [-118.589035, 51.924996], [-118.610868, 51.85761], [-118.660736, 51.79627], [-118.681226, 51.742268], [-118.672312, 51.695605], [-118.599396, 51.590004], [-118.462557, 51.425518], [-118.358946, 51.322656], [-118.288666, 51.281418], [-118.237299, 51.213774], [-118.204872, 51.119671], [-118.195261, 51.048512], [-118.208412, 51.000246], [-118.137874, 50.902836], [-117.906441, 50.68285]]]}}, {"type": "Feature", "properties": {"name": "Fraser"}, "geometry": {"type": "LineString", "coordinates": [[-118.319026, 52.521962], [-118.572266, 52.76218], [-118.60105, 52.824554], [-118.720629, 52.89132], [-118.940667, 52.983226], [-119.175459, 53.022604], [-119.42503, 53.009478], [-119.668685, 53.055573], [-119.9065, 53.160941], [-120.243947, 53.345504], [-120.681052, 53.609286], [-121.023822, 53.778113], [-121.396461, 53.888907], [-121.584304, 53.929887], [-121.64921, 53.962908], [-121.653809, 54.001665], [-121.738429, 54.061171], [-121.90307, 54.141424], [-122.088537, 54.201188], [-122.294778, 54.24041], [-122.435053, 54.245113], [-122.509364, 54.215244], [-122.55099, 54.173955], [-122.559981, 54.121296], [-122.610857, 54.045539], [-122.703668, 53.946785], [-122.744389, 53.815682], [-122.73302, 53.652281], [-122.708138, 53.534149], [-122.66969, 53.461337], [-122.709378, 53.399144], [-122.827148, 53.347623], [-122.804049, 53.265715], [-122.640028, 53.153448], [-122.530474, 53.042137], [-122.475361, 52.931756], [-122.456964, 52.798328], [-122.475284, 52.641852], [-122.43632, 52.507545], [-122.340072, 52.395355], [-122.284572, 52.258568], [-122.269818, 52.097182], [-122.271678, 51.989902], [-122.290075, 51.936778], [-122.321236, 51.901535], [-122.365058, 51.88412], [-122.392162, 51.846138], [-122.407717, 51.758236], [-122.268009, 51.518509], [-122.225118, 51.40725], [-122.232456, 51.344515], [-122.142591, 51.22137], [-121.95547, 51.037815], [-121.857802, 50.901441], [-121.849559, 50.812248], [-121.865502, 50.765997], [-121.905603, 50.762638], [-121.923741, 50.740056], [-121.919917, 50.698275], [-121.860127, 50.615309], [-121.74445, 50.49113], [-121.627635, 50.301788], [-121.509709, 50.047333], [-121.448912, 49.790863], [-121.445217, 49.532455], [-121.489607, 49.386882], [-121.582108, 49.354171], [-121.651561, 49.307094], [-121.698018, 49.245651], [-121.873667, 49.189504], [-122.178506, 49.138655], [-122.444898, 49.14129], [-122.672791, 49.197411], [-122.850196, 49.206868], [-123.040598, 49.151005], [-123.079562, 49.130593]]}}, {"type": "Feature", "properties": {"name": "Holston"}, "geometry": {"type": "LineString", "coordinates": [[-81.419624, 37.009137], [-81.694956, 36.932294], [-81.875462, 36.852531], [-82.589088, 36.610014], [-82.665414, 36.522474], [-82.935888, 36.401241], [-83.025521, 36.369848], [-83.193444, 36.323675], [-83.386533, 36.256495], [-83.453686, 36.199832], [-83.747157, 36.07617], [-83.899705, 35.978321], [-83.974352, 35.914604], [-83.969494, 35.870136]]}}, {"type": "Feature", "properties": {"name": "Klamath"}, "geometry": {"type": "MultiLineString", "coordinates": [[[-123.779855, 41.276861], [-123.837113, 41.30244], [-123.883518, 41.362489], [-123.93814, 41.465531], [-123.99116, 41.522582], [-124.093014, 41.539635]], [[-121.809355, 42.251246], [-121.784886, 42.21484], [-121.800028, 42.181147], [-121.845193, 42.136912], [-121.900642, 42.126292], [-121.966271, 42.149314], [-122.051589, 42.119031], [-122.156595, 42.035522], [-122.257002, 41.991029], [-122.352862, 41.985551], [-122.447172, 41.950902], [-122.539982, 41.887082], [-122.637031, 41.866592], [-122.738317, 41.889433], [-122.812291, 41.892017], [-122.999334, 41.825613], [-123.099819, 41.830264], [-123.222706, 41.86623], [-123.342052, 41.811298], [-123.457859, 41.665467], [-123.511499, 41.532039], [-123.502921, 41.410961], [-123.535271, 41.314895], [-123.608548, 41.243788], [-123.678879, 41.225417], [-123.779829, 41.276964]]]}}, {"type": "Feature", "properties": {"name": "La Grande Rivi\u00e8re"}, "geometry": {"type": "MultiLineString", "coordinates": [[[-70.479982, 53.406456], [-70.420063, 53.408265], [-70.387404, 53.434878], [-70.361979, 53.486865], [-70.473109, 53.491567], [-70.844611, 53.42754]], [[-71.116816, 53.590786], [-71.277272, 53.664037], [-71.452145, 53.677861], [-71.816334, 53.646028]], [[-72.036063, 53.598227], [-72.094457, 53.602413], [-72.102079, 53.616004], [-72.078411, 53.640395], [-72.081925, 53.654658], [-72.112673, 53.658844], [-72.27951, 53.620991], [-72.349506, 53.630112], [-72.388573, 53.674967], [-72.502623, 53.691193], [-72.691759, 53.678739], [-72.726847, 53.703854], [-72.852318, 53.764961], [-73.142946, 53.866299], [-73.327896, 53.915934], [-73.407219, 53.913945], [-73.535945, 53.877073], [-73.7141, 53.805398], [-73.962147, 53.748141], [-74.439068, 53.683907]], [[-77.419662, 53.797802], [-77.625618, 53.820074], [-77.825502, 53.806483], [-78.088019, 53.764496], [-78.389835, 53.761938], [-78.901483, 53.817336], [-78.945693, 53.831598]]]}}, {"type": "Feature", "properties": {"name": "Mackenzie"}, "geometry": {"type": "MultiLineString", "coordinates": [[[-117.668109, 61.307809], [-117.705601, 61.367159], [-117.8597, 61.414701], [-118.142887, 61.470202], [-118.32347, 61.454906], [-118.401501, 61.368735], [-118.700217, 61.29985], [-119.219565, 61.2482], [-119.77271, 61.304165], [-120.35965, 61.467773], [-120.673378, 61.567198], [-120.713892, 61.602519], [-120.718001, 61.648227], [-120.685729, 61.704296], [-120.684023, 61.752174], [-120.712962, 61.79181], [-120.867526, 61.820775], [-121.147716, 61.839146], [-121.363155, 61.87966], [-121.589162, 61.973685], [-122.235298, 62.117759], [-122.602563, 62.167213], [-122.906317, 62.170056], [-123.139016, 62.204265], [-123.388303, 62.310435], [-123.402049, 62.326067], [-123.355902, 62.405287], [-123.249784, 62.548069], [-123.203947, 62.709403], [-123.218339, 62.88934], [-123.253944, 63.023957], [-123.310711, 63.113306], [-123.418559, 63.198804], [-123.57749, 63.280479], [-123.683194, 63.378716], [-123.735698, 63.493437], [-123.830033, 63.630483], [-123.966226, 63.78975], [-124.083816, 63.896824], [-124.182828, 63.951782], [-124.26582, 63.978472], [-124.33287, 63.976922], [-124.390128, 63.999453], [-124.437644, 64.046013], [-124.450719, 64.104227], [-124.429376, 64.174042], [-124.447825, 64.231842], [-124.506064, 64.277576], [-124.584095, 64.311449], [-124.681945, 64.333386], [-124.789096, 64.404906], [-124.905575, 64.525984], [-124.946606, 64.614661], [-124.912189, 64.670988], [-124.943143, 64.707472], [-125.039416, 64.724008], [-125.109438, 64.763696], [-125.153156, 64.826431], [-125.375132, 64.874697], [-125.775315, 64.908493], [-126.026953, 64.956346], [-126.181621, 65.049105], [-126.459381, 65.177391], [-126.646295, 65.237956], [-126.929327, 65.29139], [-127.061412, 65.295291], [-127.336589, 65.374511], [-128.03019, 65.608347], [-128.400865, 65.619871], [-128.587985, 65.642686], [-128.715006, 65.680694], [-128.750146, 65.739295], [-128.817274, 65.790584], [-128.970469, 65.866729], [-129.065424, 65.94998], [-129.102114, 66.040414], [-129.092864, 66.108601], [-129.037648, 66.154541], [-128.922642, 66.201851], [-128.747872, 66.25053], [-128.666404, 66.292155], [-128.67829, 66.326727], [-128.745237, 66.357526], [-128.867193, 66.384553], [-129.08904, 66.480128], [-129.410726, 66.644305], [-129.699287, 66.749776], [-129.954724, 66.796595], [-130.11784, 66.860364], [-130.188663, 66.941031], [-130.236102, 67.045727], [-130.260106, 67.174453], [-130.306278, 67.258014], [-130.374595, 67.296461], [-130.496422, 67.325193], [-130.70504, 67.339688], [-130.807669, 67.373511], [-130.955696, 67.460534], [-131.159715, 67.488517], [-131.436907, 67.473246], [-131.90662, 67.403173], [-132.568905, 67.278168], [-133.020118, 67.245301], [-133.260258, 67.304471], [-133.433116, 67.370565], [-133.538743, 67.443532], [-133.640003, 67.47906], [-133.736948, 67.477122], [-133.887249, 67.525904], [-134.090957, 67.62533], [-134.199374, 67.717624], [-134.2125, 67.802735], [-134.277302, 67.889035], [-134.393781, 67.976497], [-134.447886, 68.072538], [-134.43967, 68.177183], [-134.366496, 68.291646], [-134.330219, 68.313944], [-134.271566, 68.318259], [-134.198857, 68.344614], [-134.12496, 68.392001], [-134.099354, 68.42926], [-134.074886, 68.517058], [-134.102584, 68.576125], [-134.244229, 68.706194]], [[-134.244229, 68.706194], [-134.39099, 68.705936], [-134.538888, 68.770325], [-134.835899, 68.963775]], [[-134.244229, 68.706194], [-134.545064, 68.919359], [-134.625576, 69.017131], [-134.586043, 69.070565], [-134.502973, 69.111441], [-134.313011, 69.153945], [-134.244669, 69.191591], [-134.174337, 69.252827]], [[-134.835899, 68.963775], [-135.033742, 68.907861], [-135.131488, 68.902823], [-135.195127, 68.930056], [-135.321735, 68.935586], [-135.606084, 68.911401], [-135.637969, 68.892229]], [[-134.835899, 68.963775], [-135.037385, 69.0624], [-135.07622, 69.109942], [-135.019582, 69.139294], [-135.03922, 69.181256], [-135.183061, 69.263163], [-135.254994, 69.323831]]]}}, {"type": "Feature", "properties": {"name": "Madison"}, "geometry": {"type": "MultiLineString", "coordinates": [[[-110.7437, 44.726728], [-110.858732, 44.668204], [-110.932577, 44.652985], [-111.003632, 44.661615], [-111.053991, 44.689262], [-111.099673, 44.756519]], [[-111.309247, 44.868476], [-111.40645, 44.842845], [-111.476782, 44.852353], [-111.55334, 44.891575], [-111.625584, 44.9879], [-111.693513, 45.141276], [-111.718576, 45.263439], [-111.700722, 45.354493], [-111.645635, 45.457742], [-111.553263, 45.573239], [-111.492698, 45.721809], [-111.463966, 45.903503], [-111.429627, 46.024581], [-111.389733, 46.084991], [-111.406295, 46.17651], [-111.515849, 46.360375]]]}}, {"type": "Feature", "properties": {"name": "Magdalena"}, "geometry": {"type": "MultiLineString", "coordinates": [[[-74.7638707695853, 5.0], [-74.755612, 5.188702], [-74.72316, 5.367399], [-74.668279, 5.497701], [-74.646265, 5.61511], [-74.657169, 5.719625], [-74.640555, 5.829309], [-74.596423, 5.944134], [-74.575753, 6.055135], [-74.578543, 6.162312], [-74.530975, 6.264734], [-74.432996, 6.362506], [-74.384653, 6.46511], [-74.385919, 6.572519], [-74.317086, 6.667242], [-74.17818, 6.749252], [-74.053485, 6.847644], [-73.943104, 6.962392], [-73.900238, 7.078276], [-73.924914, 7.195323], [-73.906827, 7.385234], [-73.846055, 7.648061], [-73.829829, 7.845826], [-73.858174, 7.978531], [-73.851688, 8.071187], [-73.789651, 8.150175]], [[-73.796472, 8.150175], [-73.765234, 8.329053], [-73.784147, 8.534828], [-73.842852, 8.82711], [-73.942484, 8.992165], [-74.083095, 9.029992], [-74.222725, 9.103553], [-74.361476, 9.212797], [-74.456302, 9.261295], [-74.507307, 9.249022], [-74.558725, 9.277703], [-74.610608, 9.347285], [-74.663034, 9.391107], [-74.742409, 9.418237], [-74.785533, 9.440974], [-74.7953, 9.494227], [-74.786101, 9.585591], [-74.805635, 9.690933], [-74.854004, 9.810203], [-74.85974, 9.908698], [-74.822895, 9.986419], [-74.84031, 10.060342], [-74.912037, 10.130493], [-74.8924, 10.275445], [-74.781451, 10.495174], [-74.726674, 10.683534], [-74.728069, 10.840579], [-74.761348, 10.972302], [-74.844573, 11.10971]]]}}, {"type": "Feature", "properties": {"name": "Mississippi"}, "geometry": {"type": "MultiLineString", "coordinates": [[[-89.376141, 28.981332], [-89.25713, 29.154913], [-89.01575, 29.202869]], [[-89.260954, 29.155146], [-89.288601, 29.177522]], [[-89.288601, 29.177522], [-89.180778, 29.335703]], [[-89.288601, 29.177522], [-89.433063, 29.294388], [-89.519052, 29.347305], [-89.615584, 29.386992], [-89.665968, 29.415595], [-89.669689, 29.4435], [-89.71364, 29.485642], [-89.758004, 29.505538], [-89.869315, 29.608193], [-89.972875, 29.688808], [-90.006981, 29.753895], [-90.01158, 29.810894], [-89.986724, 29.85978], [-89.958095, 29.875644], [-89.931947, 29.87766], [-89.922697, 29.888279], [-89.922542, 29.90293], [-89.932515, 29.913859], [-90.041449, 29.932023], [-90.249602, 29.942772], [-90.39042, 29.976], [-90.463956, 30.031656], [-90.58183, 30.04752], [-90.744094, 30.023491], [-90.849229, 30.040337], [-90.897211, 30.09806], [-90.944159, 30.126714], [-90.990048, 30.126378], [-91.021131, 30.147101], [-91.037719, 30.181285], [-91.074461, 30.203583], [-91.109885, 30.208828], [-91.133476, 30.227199], [-91.129522, 30.24818], [-91.147893, 30.267817], [-91.17939, 30.284896], [-91.191198, 30.307194], [-91.187245, 30.328175], [-91.195126, 30.351791], [-91.225615, 30.368431], [-91.235278, 30.402486], [-91.217915, 30.479458], [-91.226442, 30.504857], [-91.258068, 30.53408], [-91.257034, 30.565215], [-91.276025, 30.614566], [-91.338321, 30.706188], [-91.387672, 30.743808], [-91.422657, 30.753343], [-91.529085, 30.755978], [-91.557067, 30.780034], [-91.546603, 30.814734], [-91.523271, 30.853776], [-91.545595, 30.908346], [-91.646287, 30.952426], [-91.659697, 30.972012], [-91.652617, 31.029553], [-91.611043, 31.0649], [-91.596367, 31.10991], [-91.63081, 31.217604], [-91.618252, 31.276954], [-91.558695, 31.28791], [-91.528955, 31.345193], [-91.529007, 31.448753], [-91.505727, 31.518697], [-91.459089, 31.554973], [-91.414699, 31.639981], [-91.372531, 31.77372], [-91.28649, 31.883971], [-91.156523, 31.970685], [-91.092548, 32.045848], [-91.088698, 32.104139], [-91.07459, 32.131321], [-91.048158, 32.145919], [-90.947725, 32.240074], [-90.937648, 32.277332], [-90.944702, 32.330714], [-90.990022, 32.381047], [-91.059268, 32.423758], [-91.103813, 32.490498], [-91.100816, 32.541373], [-91.116112, 32.586228], [-91.14965, 32.625012], [-91.142416, 32.66103], [-91.094357, 32.694258], [-91.092083, 32.725858], [-91.135594, 32.755779], [-91.13606, 32.80885], [-91.093375, 32.885021], [-91.096088, 32.93768], [-91.144173, 32.966877], [-91.152854, 33.040568], [-91.106785, 33.217921], [-91.117301, 33.240814], [-91.163345, 33.294454], [-91.168461, 33.359463], [-91.14102, 33.438502], [-91.154327, 33.500204], [-91.192955, 33.522528], [-91.214582, 33.583403], [-91.172724, 33.616682], [-91.170373, 33.647456], [-91.207476, 33.675671], [-91.184119, 33.715668], [-91.100299, 33.767448], [-91.052705, 33.8276], [-91.038184, 33.901394], [-91.05007, 33.945163], [-91.070172, 33.974206], [-91.060354, 33.989295], [-91.043145, 34.00286], [-90.9431, 34.02968], [-90.914729, 34.04862], [-90.908787, 34.071564], [-90.940258, 34.128563], [-90.909717, 34.188766], [-90.817216, 34.252225], [-90.768123, 34.308113], [-90.762336, 34.35643], [-90.718101, 34.3917], [-90.635418, 34.413869], [-90.584, 34.503708], [-90.563846, 34.661166], [-90.539248, 34.728165], [-90.49721, 34.738087], [-90.474756, 34.760049], [-90.467573, 34.805266], [-90.415948, 34.85162], [-90.319934, 34.899162], [-90.282106, 34.945309], [-90.293424, 34.970062], [-90.29376, 35.004479], [-90.255958, 35.046388], [-90.14227, 35.114291], [-90.092919, 35.203588], [-90.107879, 35.314201], [-90.066021, 35.414118], [-89.967345, 35.503311], [-89.926521, 35.591652], [-89.943497, 35.67914], [-89.894559, 35.750505], [-89.779657, 35.805748], [-89.763585, 35.828046], [-89.769941, 35.864297], [-89.763585, 35.888766], [-89.70377, 35.906904], [-89.688913, 35.92096], [-89.689171, 35.943594], [-89.709325, 35.983049], [-89.697698, 36.030308], [-89.641887, 36.104515], [-89.634136, 36.167922], [-89.674547, 36.22058], [-89.654083, 36.247969], [-89.594629, 36.259441], [-89.583544, 36.272231], [-89.583544, 36.287656], [-89.611708, 36.321969], [-89.604086, 36.351916], [-89.555277, 36.372922], [-89.540601, 36.426666], [-89.560032, 36.513095], [-89.549645, 36.553066], [-89.519517, 36.554823], [-89.496831, 36.52883], [-89.485385, 36.498134], [-89.471484, 36.488884], [-89.451821, 36.497514], [-89.397458, 36.587793], [-89.330537, 36.615905], [-89.256123, 36.594407], [-89.203051, 36.625517], [-89.156335, 36.715718], [-89.129515, 36.811061], [-89.122487, 36.911597], [-89.15432, 36.992109], [-89.22491, 37.052674], [-89.272401, 37.079985], [-89.291676, 37.070657], [-89.29581, 37.051641], [-89.285888, 37.022702], [-89.290022, 37.01278], [-89.300823, 37.012056], [-89.351879, 37.035517], [-89.413942, 37.102413], [-89.48691, 37.212742], [-89.502929, 37.300514], [-89.461976, 37.365678], [-89.461976, 37.434124], [-89.502929, 37.505799], [-89.523419, 37.57595], [-89.523419, 37.644524], [-89.623284, 37.747257], [-89.822961, 37.884096], [-89.969826, 37.968535], [-90.063877, 38.000523], [-90.173586, 38.069046], [-90.299005, 38.174001], [-90.365771, 38.254254], [-90.373987, 38.309755], [-90.316601, 38.457808], [-90.132193, 38.818639], [-90.126767, 38.832617], [-90.134209, 38.846673], [-90.220069, 38.897678], [-90.35435, 38.930208], [-90.47796, 38.948114], [-90.577076, 38.909615], [-90.66353, 38.987491], [-90.737221, 39.181795], [-90.91938, 39.386899], [-91.209905, 39.602803], [-91.378732, 39.749409], [-91.425861, 39.82682], [-91.466815, 39.942859], [-91.501644, 40.097527], [-91.499784, 40.22602], [-91.441958, 40.379448], [-91.390773, 40.397121], [-91.380541, 40.447557], [-91.394183, 40.536647], [-91.339045, 40.603982], [-91.215124, 40.64956], [-91.102134, 40.749787], [-91.000125, 40.904687], [-90.954003, 41.015585], [-90.963822, 41.082531], [-91.001339, 41.145964], [-91.066503, 41.205909], [-91.082109, 41.280323], [-91.048106, 41.369103], [-90.938759, 41.425585], [-90.754067, 41.449822], [-90.586739, 41.494729], [-90.436671, 41.560358], [-90.347529, 41.632033], [-90.319236, 41.709651], [-90.276009, 41.770009], [-90.217769, 41.813107], [-90.176609, 41.883645], [-90.15245, 41.98152], [-90.149427, 42.053712], [-90.167514, 42.100299], [-90.233221, 42.154016], [-90.346573, 42.21484], [-90.410497, 42.272071], [-90.425044, 42.32566], [-90.48473, 42.383253], [-90.589633, 42.4448], [-90.657329, 42.520506], [-90.68787, 42.610319], [-90.788742, 42.67693], [-90.959946, 42.720338], [-91.069578, 42.788551], [-91.117585, 42.881646], [-91.148152, 42.986214], [-91.161329, 43.102331], [-91.147583, 43.199586], [-91.106966, 43.278031], [-91.117198, 43.331154], [-91.178357, 43.35893], [-91.21869, 43.395284], [-91.238276, 43.440243], [-91.278428, 43.79743], [-91.319924, 43.936285], [-91.382685, 43.990804], [-91.514848, 44.054211], [-91.716438, 44.126454], [-91.840978, 44.19415], [-91.912291, 44.288873], [-92.055125, 44.399822], [-92.148582, 44.445246], [-92.240307, 44.462144], [-92.313094, 44.497801], [-92.36694, 44.552268], [-92.441587, 44.586581], [-92.537033, 44.600792], [-92.643539, 44.645337], [-92.819884, 44.757785], [-92.962563, 44.790186], [-93.030207, 44.838142], [-93.070412, 44.912401], [-93.118755, 44.937464], [-93.175237, 44.913228], [-93.232495, 44.963044], [-93.290528, 45.086912], [-93.348999, 45.166649], [-93.407859, 45.202357], [-93.935863, 45.388651], [-94.062987, 45.439191], [-94.133293, 45.496345], [-94.189207, 45.577037], [-94.211996, 45.632125], [-94.201712, 45.661632], [-94.237782, 45.713825], [-94.320155, 45.78873], [-94.370539, 45.852809], [-94.388833, 45.906061], [-94.386404, 45.972078], [-94.363149, 46.050833], [-94.365785, 46.124885], [-94.394233, 46.194287], [-94.333461, 46.284462], [-94.183445, 46.395515], [-94.091383, 46.481737], [-94.057225, 46.54318], [-93.959479, 46.568786], [-93.798093, 46.558554], [-93.691795, 46.58602], [-93.64061, 46.651184], [-93.572035, 46.697563], [-93.486045, 46.72521], [-93.403673, 46.807427], [-93.324815, 46.944318], [-93.309157, 47.023177], [-93.356596, 47.044054], [-93.401864, 47.089736], [-93.444937, 47.160119], [-93.50855, 47.211279], [-93.592757, 47.243163], [-93.676111, 47.248899], [-93.75869, 47.228435], [-93.798248, 47.242233], [-93.794838, 47.290318], [-93.828944, 47.31166], [-93.900568, 47.306234], [-93.975835, 47.335845], [-94.094122, 47.43279]], [[-95.025822, 47.156114], [-94.9681, 47.3175], [-94.877071, 47.451419], [-94.794286, 47.482063], [-94.63706, 47.439999]], [[-94.50774, 47.456535], [-94.326485, 47.405634]]]}}, {"type": "Feature", "properties": {"name": "Missouri"}, "geometry": {"type": "MultiLineString", "coordinates": [[[-98.559663, 43.059878], [-98.14328, 42.852268], [-97.964945, 42.805863], [-97.880919, 42.849581], [-97.69814, 42.874644], [-97.416658, 42.881], [-97.238788, 42.860537], [-97.164477, 42.813201], [-97.019731, 42.760181], [-96.804525, 42.701425], [-96.675541, 42.637604], [-96.632778, 42.568668], [-96.557951, 42.524795], [-96.451006, 42.505985], [-96.38375, 42.417773], [-96.356103, 42.260134], [-96.295331, 42.132907], [-96.201383, 42.036117], [-96.154203, 41.965294], [-96.153764, 41.920439], [-96.131233, 41.872432], [-96.086636, 41.821375], [-96.068808, 41.734326], [-96.077773, 41.611285], [-96.058627, 41.545785], [-96.011395, 41.537878], [-95.990957, 41.520489], [-95.997365, 41.493643], [-95.981578, 41.4738], [-95.94357, 41.460932], [-95.932976, 41.425456], [-95.949719, 41.367424], [-95.936025, 41.330992], [-95.891945, 41.316161], [-95.883625, 41.287558], [-95.911169, 41.245183], [-95.906905, 41.211955], [-95.870887, 41.187822], [-95.846599, 41.080335], [-95.834016, 40.889494], [-95.83815, 40.777744], [-95.859001, 40.74511], [-95.826109, 40.676174], [-95.739551, 40.570857], [-95.684697, 40.466367], [-95.661571, 40.362756], [-95.607104, 40.295474], [-95.521218, 40.264571], [-95.463651, 40.198063], [-95.434298, 40.095977], [-95.362468, 40.010323], [-95.116204, 39.872089], [-95.055536, 39.870797], [-94.984016, 39.891157], [-94.929936, 39.861495], [-94.893298, 39.78181], [-94.898595, 39.74114], [-94.945827, 39.739487], [-95.004764, 39.691557], [-95.075354, 39.597377], [-95.057939, 39.508958], [-94.952519, 39.426379], [-94.882291, 39.343129], [-94.847203, 39.259154], [-94.777853, 39.19399], [-94.622384, 39.124408], [-94.504123, 39.124408], [-94.421182, 39.151099], [-94.334159, 39.204429], [-94.239255, 39.20722], [-94.136471, 39.159496], [-94.028234, 39.153631], [-93.914546, 39.189598], [-93.772953, 39.210992], [-93.603506, 39.217813], [-93.512814, 39.23745], [-93.500851, 39.269851], [-93.46938, 39.27073], [-93.418401, 39.240086], [-93.342979, 39.27011], [-93.24314, 39.360854], [-93.10842, 39.359045], [-92.938818, 39.264684], [-92.876625, 39.192001], [-92.92179, 39.141022], [-92.932591, 39.087124], [-92.909026, 39.030331], [-92.816112, 38.993279], [-92.653951, 38.976019], [-92.502849, 38.890262], [-92.292914, 38.658881], [-92.123648, 38.586095], [-91.978489, 38.597851], [-91.80098, 38.669888], [-91.619053, 38.706268], [-91.432708, 38.70694], [-91.237552, 38.666581], [-91.033585, 38.58519], [-90.871735, 38.578808], [-90.752052, 38.647512], [-90.660946, 38.681464], [-90.598418, 38.680637], [-90.512738, 38.731719], [-90.40383, 38.83471], [-90.316394, 38.859515], [-90.133123, 38.819026]], [[-100.394125, 44.435531], [-100.344541, 44.373984], [-100.225401, 44.328767], [-100.019445, 44.285669], [-99.922448, 44.244535], [-99.934437, 44.205364], [-99.921337, 44.171154], [-99.883174, 44.141802], [-99.804264, 44.122475], [-99.684685, 44.113122], [-99.646987, 44.132087], [-99.69117, 44.179267], [-99.684246, 44.204589], [-99.626213, 44.208], [-99.587482, 44.178182], [-99.568103, 44.115085], [-99.509889, 44.060308], [-99.36442, 43.990597]], [[-111.698758, 46.662682], [-111.758134, 46.670692], [-111.813686, 46.711077], [-111.885206, 46.786473], [-111.913344, 46.837012], [-111.898151, 46.862721], [-111.91908, 46.916051], [-111.976131, 46.99708], [-111.989309, 47.057076], [-111.958716, 47.096118], [-111.616076, 47.341503], [-111.453889, 47.415091], [-111.347746, 47.41168], [-111.292969, 47.439482], [-111.289506, 47.498496], [-111.237365, 47.541129], [-111.136596, 47.567381], [-111.036783, 47.632338], [-110.9379, 47.736053], [-110.856406, 47.784164], [-110.792327, 47.776774], [-110.617196, 47.843488], [-110.331012, 47.984307], [-110.166681, 48.043476], [-110.124203, 48.020945], [-110.089425, 47.968028], [-110.062346, 47.884778], [-109.994702, 47.816048], [-109.886465, 47.761891], [-109.609428, 47.754605], [-109.163641, 47.794241], [-108.934611, 47.795248], [-108.922338, 47.75768], [-108.87353, 47.718276], [-108.78816, 47.677038], [-108.606776, 47.642725], [-108.190626, 47.601772]], [[-101.399671, 47.506196], [-101.422615, 47.484389], [-101.407319, 47.431188], [-101.361534, 47.339281], [-101.247613, 47.282179], [-101.065531, 47.259777], [-100.978766, 47.231019], [-100.987345, 47.195879], [-100.966726, 47.147923], [-100.916858, 47.087204], [-100.901562, 47.034468], [-100.920785, 46.989768], [-100.892079, 46.904011], [-100.777125, 46.713764]], [[-106.405825, 48.020738], [-106.366706, 48.057868], [-106.220979, 48.057713], [-105.955672, 48.03265], [-105.729226, 48.042132], [-105.541718, 48.086109], [-105.340231, 48.099778], [-105.124766, 48.083086], [-104.977799, 48.095204], [-104.89925, 48.136184], [-104.749518, 48.149981], [-104.52855, 48.136649], [-104.277402, 48.093292], [-103.996076, 48.01986], [-103.834638, 47.994177], [-103.772317, 48.027301]]]}}, {"type": "Feature", "properties": {"name": "Niagara"}, "geometry": {"type": "LineString", "coordinates": [[-79.059226, 43.278056], [-79.066047, 43.106103]]}}, {"type": "Feature", "properties": {"name": "North Saskatchewan"}, "geometry": {"type": "MultiLineString", "coordinates": [[[-117.132483, 52.014035], [-117.010914, 52.076744], [-116.937224, 52.071602], [-116.837721, 51.993416], [-116.53407, 52.021579], [-116.438081, 52.079457], [-116.448468, 52.17635], [-116.389686, 52.27606], [-116.261709, 52.378534], [-116.053195, 52.437471], [-115.764117, 52.452819], [-115.575601, 52.440004], [-115.487571, 52.399076], [-115.398351, 52.386984], [-115.307969, 52.403727], [-115.21105, 52.3929], [-115.10762, 52.354505], [-115.028916, 52.344609], [-114.97494, 52.363212], [-114.984371, 52.462845], [-115.057287, 52.643505], [-115.111134, 52.739985], [-115.146015, 52.752284], [-115.164205, 52.78497], [-115.165756, 52.838041], [-115.183791, 52.874809], [-115.218207, 52.895325], [-115.227457, 52.940283], [-115.211463, 53.009685], [-115.159425, 53.050018], [-115.071291, 53.061206], [-115.014008, 53.08291], [-114.840556, 53.275715], [-114.729451, 53.320622], [-114.596436, 53.314033], [-114.482593, 53.337933], [-114.388025, 53.392297], [-114.261883, 53.395656], [-114.10427, 53.348088], [-113.946657, 53.332817], [-113.78907, 53.349871], [-113.6906, 53.389196], [-113.651274, 53.450769], [-113.569238, 53.49968], [-113.444517, 53.536009], [-113.305817, 53.628484], [-113.153062, 53.777157], [-113.024233, 53.876453], [-112.919329, 53.926424], [-112.855871, 53.975104], [-112.833908, 54.022594], [-112.731847, 54.031844], [-112.549636, 54.002983], [-112.410006, 54.00611], [-112.312906, 54.041301], [-112.19294, 54.021897], [-112.050106, 53.947948], [-111.919778, 53.907821], [-111.801956, 53.901568], [-111.737438, 53.869684], [-111.726276, 53.812168], [-111.577628, 53.773927], [-111.291548, 53.754962], [-111.094273, 53.772015], [-110.985804, 53.824984], [-110.858267, 53.85077], [-110.711661, 53.849375], [-110.562522, 53.801419], [-110.410904, 53.706903], [-110.301737, 53.668352], [-110.234997, 53.685767], [-110.123324, 53.660782], [-109.966641, 53.593447], [-109.826237, 53.564121], [-109.702006, 53.572803], [-109.612554, 53.548721], [-109.557777, 53.491877], [-109.534523, 53.451673], [-109.542765, 53.428212], [-109.481916, 53.408678], [-109.352002, 53.39315], [-109.236453, 53.359689], [-109.135219, 53.308323], [-109.022177, 53.215822], [-108.897327, 53.082238], [-108.709664, 52.970876], [-108.45924, 52.881837], [-108.343433, 52.818533], [-108.362347, 52.781068], [-108.360796, 52.755281], [-108.327801, 52.734249]], [[-108.334002, 52.734249], [-108.103112, 52.611363], [-107.985496, 52.566869], [-107.904209, 52.559841], [-107.746674, 52.502222], [-107.512889, 52.394063], [-107.357498, 52.337943], [-107.280552, 52.333912], [-107.180352, 52.34342], [-107.056871, 52.366468], [-106.961631, 52.441451], [-106.894633, 52.568368], [-106.691492, 52.764118], [-106.352288, 53.028753], [-106.150078, 53.171018], [-106.08494, 53.191017], [-106.033574, 53.185333], [-105.996031, 53.153965], [-105.879501, 53.162518], [-105.683957, 53.210938], [-105.455909, 53.236441], [-105.06508, 53.240394]]]}}, {"type": "Feature", "properties": {"name": "Ohio"}, "geometry": {"type": "MultiLineString", "coordinates": [[[-85.186035, 38.693659], [-85.246626, 38.727042], [-85.306751, 38.737197], [-85.405427, 38.729962], [-85.444779, 38.683091], [-85.424832, 38.596585], [-85.45868, 38.530207], [-85.546323, 38.484008], [-85.608903, 38.42303], [-85.64642, 38.347298], [-85.706288, 38.301358], [-85.788453, 38.285209], [-85.854935, 38.215032], [-85.905681, 38.090905], [-85.961156, 38.014011], [-86.021333, 37.984348], [-86.103447, 37.991867], [-86.207523, 38.036567], [-86.267623, 38.082585], [-86.283746, 38.129869], [-86.314597, 38.163769], [-86.342657, 38.178729], [-86.361441, 38.178988], [-86.354956, 38.15886], [-86.365136, 38.144597], [-86.429628, 38.139688], [-86.457379, 38.120154], [-86.448335, 38.08597], [-86.462546, 38.06176], [-86.49996, 38.047497], [-86.519856, 38.014838], [-86.522181, 37.96373], [-86.548639, 37.917066], [-86.599231, 37.874794], [-86.673128, 37.889031], [-86.770331, 37.959776], [-86.869085, 37.976132], [-86.96944, 37.938046], [-87.044268, 37.886447], [-87.093567, 37.821283], [-87.141032, 37.805238], [-87.2094, 37.854847], [-87.372387, 37.923474], [-87.457292, 37.938098], [-87.518451, 37.921562], [-87.561446, 37.929055], [-87.587387, 37.955694], [-87.599402, 37.94647], [-87.600797, 37.886732], [-87.615396, 37.84893], [-87.643249, 37.83304], [-87.664566, 37.845546], [-87.679423, 37.88637], [-87.71446, 37.899599], [-87.76965, 37.885233], [-87.825254, 37.891434], [-87.874424, 37.915748], [-87.892123, 37.912983], [-87.905998, 37.901821], [-87.902071, 37.855106], [-87.912484, 37.817692], [-87.938115, 37.793817], [-87.974547, 37.78803], [-88.021779, 37.800432], [-88.073249, 37.770925], [-88.128956, 37.699508], [-88.140377, 37.62065], [-88.107511, 37.53435], [-88.190503, 37.464561], [-88.389328, 37.411257], [-88.49467, 37.364283], [-88.506608, 37.323588], [-88.492784, 37.26155], [-88.453278, 37.178144], [-88.44625, 37.120422], [-88.471674, 37.088382], [-88.61381, 37.110087], [-88.872606, 37.185534], [-89.046213, 37.182976], [-89.134605, 37.102464], [-89.165069, 37.041564], [-89.15432, 36.992109]], [[-79.990874, 40.447712], [-80.148978, 40.521584], [-80.222669, 40.584474], [-80.264682, 40.661007], [-80.344005, 40.686199], [-80.519085, 40.646951], [-80.637527, 40.603258], [-80.65905, 40.562977], [-80.623187, 40.511559], [-80.604093, 40.445206], [-80.601819, 40.363893], [-80.668275, 40.185248], [-80.803512, 39.909141], [-80.87219, 39.735508], [-80.874309, 39.664298], [-80.963295, 39.571125], [-81.139125, 39.45599], [-81.262502, 39.386537], [-81.33335, 39.362817], [-81.392417, 39.364833], [-81.439649, 39.392557], [-81.492721, 39.373618], [-81.551632, 39.30804], [-81.60646, 39.274141], [-81.657207, 39.27197], [-81.700589, 39.229466], [-81.736659, 39.146629], [-81.770662, 39.098828], [-81.802598, 39.086064], [-81.80495, 39.044051], [-81.77769, 38.972789], [-81.780119, 38.946977], [-81.809342, 38.950026], [-81.843759, 38.934316], [-81.882438, 38.894215], [-81.896675, 38.893544], [-81.907372, 38.900236], [-81.918534, 38.952351], [-81.949799, 38.989326], [-82.001087, 39.011107], [-82.072272, 38.962945], [-82.163326, 38.844916], [-82.20353, 38.768228], [-82.187639, 38.715208], [-82.180069, 38.63759], [-82.202496, 38.605835], [-82.252312, 38.594079], [-82.290863, 38.552014], [-82.318148, 38.479667], [-82.387059, 38.433985], [-82.497543, 38.414968], [-82.621282, 38.450677], [-82.758225, 38.541162], [-82.844628, 38.627668], [-82.880439, 38.710247], [-83.00007, 38.713994], [-83.203469, 38.638908], [-83.356974, 38.62741], [-83.460585, 38.6795], [-83.538384, 38.69986], [-83.616312, 38.682781], [-83.689873, 38.649527], [-83.752273, 38.669371], [-83.828082, 38.731228], [-83.948385, 38.774223], [-84.113232, 38.798381], [-84.227282, 38.865199], [-84.290431, 38.974701], [-84.358024, 39.049916], [-84.430061, 39.090896], [-84.508867, 39.102833], [-84.594547, 39.08578], [-84.660537, 39.094462], [-84.706943, 39.128904], [-84.765906, 39.125002], [-84.837426, 39.082679], [-84.860603, 39.03971], [-84.835488, 38.996044], [-84.836599, 38.960568], [-84.863884, 38.933231], [-84.854169, 38.912896], [-84.807454, 38.899538], [-84.789625, 38.868377], [-84.800736, 38.819388], [-84.901246, 38.769572], [-85.135521, 38.697251], [-85.169886, 38.690378], [-85.186113, 38.693659]]]}}, {"type": "Feature", "properties": {"name": "Orinoco"}, "geometry": {"type": "MultiLineString", "coordinates": [[[-67.81083922228723, 5.0], [-67.804202, 5.132504], [-67.824924, 5.27048], [-67.788415, 5.375486], [-67.694648, 5.447523], [-67.6423, 5.558782], [-67.631344, 5.709368], [-67.575224, 5.833081], [-67.473886, 5.929974], [-67.439366, 6.025524], [-67.471613, 6.119782], [-67.400299, 6.239826], [-67.225374, 6.385657], [-67.118947, 6.556784], [-67.061999, 6.851417], [-67.071224, 7.033189], [-66.959396, 7.151063], [-66.729565, 7.265603], [-66.563451, 7.395828], [-66.461028, 7.541659], [-66.297317, 7.628811], [-66.072318, 7.657233], [-65.912018, 7.713845], [-65.768616, 7.840995], [-65.640613, 7.89249], [-65.518011, 7.90081], [-65.358124, 7.883059], [-65.220613, 7.857195], [-65.105478, 7.823192], [-65.004218, 7.771128], [-64.92846, 7.710305], [-64.887171, 7.668008], [-64.837561, 7.670488], [-64.787125, 7.685371], [-64.74165, 7.709452], [-64.58998, 7.759553], [-64.509855, 7.824355], [-64.538381, 7.89156], [-64.545435, 7.942926], [-64.530965, 7.978454], [-64.480942, 7.999383], [-64.395315, 8.005713], [-64.330822, 8.027727], [-64.287517, 8.065399], [-64.22163, 8.056873], [-64.114091, 7.980547], [-64.049599, 7.971452], [-63.993091, 7.973881], [-63.92387, 8.012896], [-63.849353, 8.091548], [-63.7275, 8.135731], [-63.558311, 8.145343], [-63.398941, 8.190973], [-63.249493, 8.27257], [-63.100872, 8.30355], [-62.953103, 8.283887], [-62.791097, 8.333859], [-62.614803, 8.453541], [-62.429336, 8.553277], [-62.234723, 8.633065], [-62.152015, 8.642031]], [[-62.152015, 8.642031], [-62.092303, 8.648465], [-62.002076, 8.599527], [-61.880326, 8.582112], [-61.650392, 8.603299], [-61.618688, 8.597486], [-61.394903, 8.774219], [-61.098849, 8.941315]], [[-62.063312, 9.036322], [-62.077316, 8.975292], [-62.064707, 8.928448], [-62.025485, 8.895788], [-62.038766, 8.827834], [-62.152015, 8.642031]], [[-61.735968, 9.631195], [-61.848545, 9.288555], [-61.923941, 9.151535], [-62.063312, 9.036322]], [[-62.299783, 9.788188], [-62.309395, 9.747726], [-62.414221, 9.562052], [-62.388202, 9.421079], [-62.277098, 9.244759], [-62.180256, 9.134171], [-62.097625, 9.089265], [-62.063312, 9.036322]]]}}, {"type": "Feature", "properties": {"name": "Peace"}, "geometry": {"type": "MultiLineString", "coordinates": [[[-122.221707, 56.021232], [-122.170186, 55.97201], [-122.118096, 55.961649], [-122.048307, 55.973845], [-121.950974, 56.016943], [-121.826073, 56.090995], [-121.630761, 56.165409], [-121.364964, 56.240133], [-121.039351, 56.238273], [-120.653948, 56.159725], [-120.388641, 56.120864], [-120.243533, 56.121691], [-119.734624, 56.180034], [-119.49221, 56.231038], [-119.298268, 56.294342], [-119.144686, 56.315943], [-119.031514, 56.295737], [-118.977797, 56.267005], [-118.983559, 56.229746], [-118.963405, 56.187553], [-118.917335, 56.140475], [-118.907207, 56.099625], [-118.916534, 56.069911], [-118.869173, 56.017201], [-118.715797, 55.956223], [-118.448708, 55.933589], [-118.067852, 55.949298], [-117.739139, 56.022524], [-117.462489, 56.153265], [-117.273095, 56.288192], [-117.17093, 56.427305], [-117.127625, 56.536472], [-117.14318, 56.615692], [-117.177312, 56.668609], [-117.228084, 56.704653], [-117.230307, 56.733333], [-117.290742, 56.786973], [-117.318596, 56.843301], [-117.294721, 56.925208], [-117.219093, 57.032746], [-117.208757, 57.083338], [-117.212659, 57.116979], [-117.195012, 57.136823], [-117.121398, 57.179559], [-117.097214, 57.229065], [-117.105585, 57.268288], [-117.133284, 57.308802], [-117.126669, 57.357274], [-117.082564, 57.416832], [-117.091245, 57.477164], [-117.104629, 57.507239], [-117.094785, 57.530494], [-117.058327, 57.557934], [-117.053909, 57.599844], [-117.075768, 57.622297], [-117.093597, 57.663767], [-117.087912, 57.692319], [-117.106386, 57.75154], [-117.098015, 57.774019], [-117.107265, 57.795284], [-117.100211, 57.822517], [-117.078171, 57.844583], [-117.082564, 57.886441], [-117.133052, 57.920625], [-117.14796, 57.970519], [-117.116489, 58.024469], [-117.052617, 58.06736], [-116.956396, 58.099245], [-116.83201, 58.112267], [-116.679513, 58.106531], [-116.591818, 58.114696], [-116.568952, 58.136813], [-116.573008, 58.16167], [-116.604066, 58.189317], [-116.612282, 58.21593], [-116.597761, 58.24151], [-116.641531, 58.277735], [-116.643521, 58.291636], [-116.59988, 58.312436], [-116.494977, 58.305847], [-116.4957, 58.278355], [-116.482264, 58.262852], [-116.454617, 58.259442], [-116.384183, 58.292928], [-116.270856, 58.363311], [-116.143758, 58.415763], [-116.00281, 58.450283], [-115.766649, 58.439146], [-115.435274, 58.382354], [-115.169166, 58.359487], [-114.968352, 58.370494], [-114.694311, 58.44403], [-114.347046, 58.580094], [-114.085925, 58.663655], [-113.823383, 58.710215]], [[-113.713519, 58.669262], [-113.270832, 58.779307], [-113.126965, 58.832378], [-113.134407, 58.865141], [-113.100765, 58.888809], [-113.026093, 58.903304], [-112.943514, 58.95821], [-112.853132, 59.053553], [-112.769313, 59.118149], [-112.69216, 59.1521], [-112.52819, 59.143289], [-112.277456, 59.091768], [-112.101757, 59.077945], [-112.001194, 59.101767], [-111.94435, 59.099054], [-111.931224, 59.069754], [-111.961972, 59.034872], [-112.036593, 58.99441], [-112.059124, 58.963068], [-112.029565, 58.940899], [-111.965848, 58.940072], [-111.868076, 58.960639], [-111.759969, 58.953327], [-111.641526, 58.918135], [-111.539414, 58.926636], [-111.410765, 59.005055]]]}}, {"type": "Feature", "properties": {"name": "Rio Grande"}, "geometry": {"type": "MultiLineString", "coordinates": [[[-99.172081, 26.564141], [-99.107769, 26.446913], [-99.015269, 26.398957], [-98.87321, 26.381232], [-98.765232, 26.340408], [-98.691412, 26.276458], [-98.598291, 26.237856], [-98.485869, 26.224575], [-98.378124, 26.182356], [-98.275029, 26.111197], [-98.082793, 26.06443], [-97.801415, 26.042054], [-97.587242, 25.984202], [-97.440274, 25.890823], [-97.375627, 25.871806], [-97.35816, 25.870514], [-97.338653, 25.911184], [-97.281783, 25.941621], [-97.146235, 25.961465]], [[-101.038633, 29.460295], [-101.016335, 29.400661], [-100.924144, 29.314697], [-100.754594, 29.182508], [-100.658631, 29.068536], [-100.636307, 28.972805], [-100.549697, 28.821342], [-100.398905, 28.614223], [-100.331726, 28.50255], [-100.348159, 28.486427], [-100.336273, 28.428136], [-100.296043, 28.327677], [-100.221267, 28.242617], [-100.111946, 28.172958], [-100.00141, 28.047849], [-99.889634, 27.867292], [-99.754267, 27.729936], [-99.595311, 27.635885], [-99.505316, 27.548345], [-99.484258, 27.467394], [-99.485834, 27.398044], [-99.51007, 27.340321], [-99.499813, 27.285518], [-99.455138, 27.233713], [-99.440256, 27.170125], [-99.457722, 27.081706], [-99.456534, 27.056669]], [[-106.566358, 31.819531], [-106.43603, 31.76447], [-106.346966, 31.678997], [-106.255705, 31.544664], [-106.148063, 31.450923], [-106.024091, 31.397774], [-105.812709, 31.241039], [-105.513993, 30.980771], [-105.275817, 30.807267], [-105.098153, 30.720554], [-104.978832, 30.645933], [-104.917854, 30.583353], [-104.835895, 30.447651], [-104.681331, 30.134362], [-104.681331, 29.990521], [-104.622213, 29.854276], [-104.503977, 29.677672], [-104.400625, 29.573751], [-104.312206, 29.542435], [-104.21552, 29.479906], [-104.110616, 29.386114], [-103.989745, 29.323172], [-103.852906, 29.291081], [-103.663977, 29.2069], [-103.422932, 29.070681], [-103.257697, 29.001124], [-103.168297, 28.998179], [-103.090007, 29.041871], [-103.022828, 29.132201], [-102.956811, 29.190363], [-102.892009, 29.216382], [-102.865679, 29.258034], [-102.877823, 29.315317], [-102.834002, 29.443965], [-102.734189, 29.643953], [-102.614945, 29.752344], [-102.476246, 29.769088], [-102.385657, 29.806656], [-102.343076, 29.864973], [-102.26892, 29.871174], [-102.163087, 29.82526], [-101.990901, 29.795701], [-101.752337, 29.782472], [-101.611596, 29.786968], [-101.568704, 29.80924], [-101.54638, 29.808078], [-101.544623, 29.783531], [-101.509302, 29.773118], [-101.440392, 29.776839], [-101.380344, 29.742552], [-101.303527, 29.634083]], [[-107.293445, 32.910343], [-107.2404, 32.74286], [-107.171644, 32.674414], [-107.069506, 32.649144], [-106.975351, 32.583851], [-106.889155, 32.478535], [-106.846418, 32.399315], [-106.84709, 32.346295], [-106.777172, 32.194728], [-106.56628, 31.819531]], [[-107.181411, 33.173195], [-107.279803, 33.115783]], [[-107.426564, 37.775963], [-107.066948, 37.74395], [-106.924346, 37.808855], [-106.813914, 37.792215], [-106.688134, 37.715631], [-106.541553, 37.677701], [-106.374199, 37.678424], [-106.195967, 37.647289], [-106.006831, 37.584295], [-105.878596, 37.524945], [-105.811236, 37.469238], [-105.763461, 37.406038], [-105.735246, 37.335318], [-105.731603, 37.239536], [-105.75248, 37.118717], [-105.74292, 36.979733], [-105.702819, 36.822585], [-105.694809, 36.650683], [-105.718942, 36.464028], [-105.760697, 36.338919], [-105.849864, 36.24355], [-106.006263, 36.133273], [-106.072616, 36.048033], [-106.101038, 35.951088], [-106.166098, 35.855228], [-106.267694, 35.760376], [-106.343193, 35.648315], [-106.392493, 35.519073], [-106.487319, 35.375722], [-106.627595, 35.218316], [-106.692423, 35.089383], [-106.681777, 34.98895], [-106.716271, 34.780875], [-106.795853, 34.465183], [-106.849855, 34.294651], [-106.878277, 34.269278], [-106.886364, 34.147063], [-106.874169, 33.927904], [-106.928016, 33.748845], [-107.047905, 33.609835], [-107.123404, 33.494235], [-107.169939, 33.356]]]}}, {"type": "Feature", "properties": {"name": "Sacramento"}, "geometry": {"type": "MultiLineString", "coordinates": [[[-121.580765, 38.658778], [-121.51374, 38.617798], [-121.503508, 38.5801], [-121.527693, 38.532015], [-121.531103, 38.475378], [-121.51374, 38.410188], [-121.518856, 38.365824], [-121.546451, 38.342208], [-121.544229, 38.311409], [-121.512087, 38.273375], [-121.572496, 38.195137], [-121.689259, 38.147672], [-121.724632, 38.100879], [-121.748635, 38.080467]], [[-122.410611, 40.721442], [-122.432082, 40.647752], [-122.374075, 40.573544], [-122.243747, 40.474171], [-122.181658, 40.401152], [-122.187808, 40.354385], [-122.177214, 40.326893], [-122.149825, 40.318625], [-122.153107, 40.281831], [-122.187084, 40.21646], [-122.184087, 40.175481], [-122.144089, 40.158893], [-122.103988, 40.066909], [-122.063707, 39.89958], [-122.016939, 39.794005], [-121.963635, 39.75021], [-121.95578, 39.632258], [-121.993323, 39.440177], [-122.005286, 39.316644], [-121.991644, 39.261738], [-121.940846, 39.186446], [-121.852996, 39.090844], [-121.80504, 39.001754], [-121.79703, 38.919253], [-121.762304, 38.850523], [-121.700835, 38.795591], [-121.648822, 38.769313], [-121.606241, 38.771639], [-121.583917, 38.744354], [-121.580739, 38.658881]]]}}, {"type": "Feature", "properties": {"name": "San Juan"}, "geometry": {"type": "MultiLineString", "coordinates": [[[-84.769136, 11.117694], [-84.488274, 11.044029], [-84.348283, 10.979899], [-84.255549, 10.90073], [-84.204958, 10.841328], [-84.196586, 10.801718], [-84.168345, 10.78035], [-84.096205, 10.775699], [-83.919291, 10.735366], [-83.811184, 10.743246], [-83.712947, 10.785879], [-83.658945, 10.836858], [-83.641478, 10.91476]], [[-86.104739, 12.207627], [-85.871368, 12.097763]]]}}, {"type": "Feature", "properties": {"name": "Saskatchewan"}, "geometry": {"type": "MultiLineString", "coordinates": [[[-99.330288, 53.159417], [-99.229829, 53.184894]], [[-105.06508, 53.240394], [-104.900594, 53.163835], [-104.818739, 53.156678], [-104.764685, 53.19342], [-104.571002, 53.23334], [-104.237689, 53.27649], [-104.026642, 53.343928], [-103.893601, 53.481542]], [[-103.420633, 53.652849], [-103.128558, 53.752223], [-103.044687, 53.808602], [-103.071662, 53.855008], [-103.04957, 53.921825], [-102.978437, 54.009003], [-102.899528, 54.058819], [-102.812866, 54.071222], [-102.685742, 54.053497], [-102.434362, 53.981822]], [[-102.380541, 53.966319], [-102.188408, 53.903894], [-102.040252, 53.883636], [-101.872045, 53.88467], [-101.732002, 53.904255], [-101.620097, 53.942341], [-101.548137, 53.981098], [-101.516046, 54.020579], [-101.460494, 53.994431], [-101.381481, 53.902705], [-101.265441, 53.862449], [-101.112453, 53.873766], [-101.042793, 53.858625], [-101.056436, 53.817025], [-101.026438, 53.760905], [-100.952773, 53.690211], [-100.782086, 53.659826], [-100.51435, 53.669799], [-100.366194, 53.65378], [-100.32338, 53.590786]]]}}, {"type": "Feature", "properties": {"name": "Slave"}, "geometry": {"type": "LineString", "coordinates": [[-111.410765, 59.005055], [-111.384436, 59.153289], [-111.408466, 59.213182], [-111.474146, 59.234163], [-111.472674, 59.261706], [-111.404073, 59.295864], [-111.393996, 59.345732], [-111.442417, 59.411413], [-111.452649, 59.490219], [-111.424744, 59.582255], [-111.450323, 59.683179], [-111.569024, 59.847949], [-111.630519, 59.921692], [-111.700437, 59.965927], [-111.799294, 60.005227], [-111.922594, 60.026104], [-112.070311, 60.028533], [-112.205988, 60.097262], [-112.329598, 60.232293], [-112.465145, 60.316887], [-112.560282, 60.345826], [-112.550851, 60.361536], [-112.456464, 60.381379], [-112.44866, 60.41006], [-112.461399, 60.43843], [-112.494627, 60.466439], [-112.496668, 60.490081], [-112.510931, 60.519665], [-112.546742, 60.54292], [-112.734431, 60.590901], [-112.837784, 60.643482], [-112.856853, 60.700714], [-112.898323, 60.738618], [-112.933101, 60.743166], [-112.956511, 60.754354], [-112.977879, 60.801147], [-113.001288, 60.80218], [-113.060923, 60.776601], [-113.129756, 60.768591], [-113.186497, 60.78399], [-113.225667, 60.831533], [-113.247165, 60.911114], [-113.219259, 60.97385], [-113.141951, 61.019738], [-113.133554, 61.054491], [-113.181432, 61.086711], [-113.191716, 61.120404], [-113.160116, 61.158438], [-113.164043, 61.171874], [-113.177298, 61.181692], [-113.211353, 61.187687], [-113.222928, 61.207117], [-113.213911, 61.226444], [-113.214944, 61.239673], [-113.251557, 61.24882], [-113.319047, 61.252696], [-113.704398, 61.245719]]}}, {"type": "Feature", "properties": {"name": "Snake"}, "geometry": {"type": "MultiLineString", "coordinates": [[[-113.473921, 42.67476], [-113.623783, 42.577918], [-113.785194, 42.537662], [-114.008048, 42.521668], [-114.284362, 42.55394], [-114.614058, 42.634504], [-114.813219, 42.706696], [-114.881742, 42.770568], [-114.913471, 42.825345], [-114.908407, 42.871027], [-114.961272, 42.900172], [-115.072118, 42.912885], [-115.143586, 42.941204], [-115.175626, 42.985128], [-115.256525, 42.989056], [-115.386259, 42.952882], [-115.569452, 42.956138], [-115.806052, 42.998823], [-115.916201, 42.994844], [-115.974027, 42.978307], [-116.079447, 43.019132], [-116.25711, 43.128737], [-116.359429, 43.211962], [-116.386301, 43.268884], [-116.43852, 43.30361], [-116.516112, 43.316219], [-116.605564, 43.364278], [-116.706902, 43.447788], [-116.766743, 43.513778], [-116.78514, 43.562303], [-116.865032, 43.61739], [-117.006418, 43.679091], [-117.063779, 43.733868], [-117.023653, 43.805647], [-116.957636, 43.964138], [-116.943967, 44.037674], [-116.960685, 44.079119], [-116.949781, 44.119013], [-116.911308, 44.157408], [-116.912419, 44.199473], [-116.953192, 44.24531], [-117.028949, 44.275541], [-117.139744, 44.290268], [-117.197311, 44.343805], [-117.201704, 44.436203], [-117.118918, 44.578313], [-116.948954, 44.77011], [-116.855859, 44.905735], [-116.839555, 44.985161], [-116.737339, 45.168845], [-116.54916, 45.456735], [-116.477045, 45.64109], [-116.520918, 45.721912], [-116.61683, 45.799169], [-116.764728, 45.872911], [-116.869192, 45.958487], [-116.930196, 46.055949], [-116.947843, 46.124317], [-116.922108, 46.163642], [-116.94296, 46.232114], [-117.010398, 46.329627], [-117.039, 46.396548], [-117.028768, 46.432877], [-117.069877, 46.449155], [-117.162378, 46.445434], [-117.213899, 46.468094], [-117.224441, 46.517109], [-117.284179, 46.58248], [-117.393087, 46.664206], [-117.503468, 46.708519], [-117.615322, 46.715495], [-117.702035, 46.697589], [-117.763582, 46.654853], [-117.874634, 46.617827], [-118.035141, 46.586459], [-118.205467, 46.577261], [-118.385507, 46.590231], [-118.546428, 46.526618], [-118.688176, 46.386523], [-118.826772, 46.291128], [-119.036062, 46.206482]], [[-112.864397, 42.811909], [-113.022295, 42.685948], [-113.135259, 42.646389], [-113.316282, 42.653624]], [[-111.188117, 43.33888], [-111.348262, 43.447968], [-111.40937, 43.509954], [-111.424795, 43.561269], [-111.586491, 43.634701], [-111.894431, 43.730354], [-112.043414, 43.707978], [-112.033389, 43.567574], [-112.071862, 43.446031], [-112.158833, 43.343298], [-112.311563, 43.224855], [-112.639295, 43.023576]], [[-110.63058, 43.837066], [-110.72737, 43.61956], [-110.780494, 43.535276], [-110.822248, 43.511608], [-110.837028, 43.478199], [-110.824832, 43.43492], [-110.791707, 43.401666], [-110.737654, 43.37836], [-110.725251, 43.33565], [-110.754397, 43.273535], [-110.837105, 43.225605], [-110.982548, 43.18956], [-111.047867, 43.20651]]]}}, {"type": "Feature", "properties": {"name": "Sprague"}, "geometry": {"type": "LineString", "coordinates": [[-120.881841, 42.40041], [-121.048471, 42.440666], [-121.436536, 42.481671], [-121.603735, 42.524666], [-121.679441, 42.583344], [-121.775636, 42.578538], [-121.889325, 42.512031], [-121.921209, 42.475134]]}}, {"type": "Feature", "properties": {"name": "St. Clair"}, "geometry": {"type": "LineString", "coordinates": [[-82.417238, 43.017375], [-82.488344, 42.73951], [-82.545318, 42.624685], [-82.645131, 42.558049]]}}, {"type": "Feature", "properties": {"name": "St. Lawrence"}, "geometry": {"type": "LineString", "coordinates": [[-74.708871, 45.003868], [-74.762459, 44.999062], [-74.85664, 45.00392], [-74.99614, 44.970124], [-75.179385, 44.899379], [-75.401258, 44.77228], [-75.791957, 44.497052]]}}, {"type": "Feature", "properties": {"name": "Stikine"}, "geometry": {"type": "LineString", "coordinates": [[-128.129822, 57.291955], [-127.939214, 57.369884], [-127.833044, 57.394068], [-127.705145, 57.388797], [-127.601017, 57.431895], [-127.596366, 57.489618], [-127.65644, 57.576279], [-127.664373, 57.639273], [-127.620086, 57.678495], [-127.723154, 57.706039], [-127.973527, 57.721852], [-128.127703, 57.761746], [-128.185633, 57.825721], [-128.285833, 57.890317], [-128.428254, 57.955533], [-128.615116, 57.9761], [-128.846471, 57.952019], [-129.039999, 57.948763], [-129.195752, 57.966333], [-129.332178, 57.960493], [-129.449225, 57.931245], [-129.733497, 57.975428], [-130.184891, 58.093095], [-130.475415, 58.148131], [-130.60502, 58.140482], [-130.759532, 58.104774], [-130.938953, 58.040954], [-131.055044, 57.987546], [-131.107832, 57.944629], [-131.190204, 57.909385], [-131.302187, 57.881816], [-131.418045, 57.82076], [-131.597647, 57.679012], [-131.727923, 57.553232], [-131.766551, 57.467242], [-131.756888, 57.379185], [-131.775207, 57.333038], [-131.821431, 57.328852], [-131.840681, 57.305598], [-131.832929, 57.263327], [-131.79425, 57.214492], [-131.724693, 57.159147], [-131.710327, 57.116178], [-131.751151, 57.085637], [-131.774871, 56.977556], [-131.78146, 56.791986], [-131.80058, 56.753177], [-131.833705, 56.714833], [-131.881428, 56.703206], [-132.074801, 56.711216], [-132.206447, 56.696178], [-132.311402, 56.638998], [-132.357652, 56.625898]]}}, {"type": "Feature", "properties": {"name": "Tennessee"}, "geometry": {"type": "MultiLineString", "coordinates": [[[-87.700455, 34.773382], [-87.81404, 34.76315], [-87.964858, 34.843842], [-88.190787, 35.012049], [-88.306206, 35.125789], [-88.311167, 35.185062], [-88.281815, 35.23865], [-88.218201, 35.286554], [-88.187738, 35.328852], [-88.190477, 35.365542], [-88.139292, 35.390605], [-88.034182, 35.404093], [-87.993719, 35.418407], [-88.017904, 35.433651], [-88.015268, 35.464399], [-87.985787, 35.510753], [-87.987337, 35.579405], [-88.019945, 35.670407], [-88.010307, 35.766525], [-87.958424, 35.867733], [-87.943179, 35.925094], [-87.9754, 35.945248]], [[-83.969494, 35.870136], [-84.228781, 35.766784], [-84.34358, 35.735804], [-84.400321, 35.74278], [-84.456958, 35.775491], [-84.541759, 35.863289], [-84.598216, 35.802725], [-84.629997, 35.789237], [-84.655938, 35.802673], [-84.701207, 35.74942], [-84.765828, 35.629479], [-84.81952, 35.566176], [-84.862231, 35.559484], [-84.889671, 35.528219], [-84.901866, 35.472305], [-84.924423, 35.449774], [-84.957315, 35.460627], [-85.013022, 35.391432], [-85.091545, 35.242139], [-85.182314, 35.132455], [-85.285357, 35.062305], [-85.346801, 35.049747], [-85.366644, 35.094783], [-85.392431, 35.096463], [-85.424057, 35.054863], [-85.460179, 35.049592], [-85.500693, 35.080701], [-85.558932, 35.080443], [-85.634948, 35.048869], [-85.680113, 35.00975], [-85.69448, 34.963138], [-85.83938, 34.802682], [-86.114738, 34.528384], [-86.294133, 34.403068], [-86.377539, 34.426633], [-86.461565, 34.477947], [-86.546159, 34.556935], [-86.665996, 34.591016], [-86.898515, 34.574763]], [[-88.283288, 37.021513], [-88.471674, 37.088382]]]}}, {"type": "Feature", "properties": {"name": "Teslin"}, "geometry": {"type": "MultiLineString", "coordinates": [[[-131.208239, 59.086988], [-131.393034, 59.07164], [-131.513156, 59.083577], [-131.688649, 59.134789], [-131.792467, 59.14099], [-131.861377, 59.177939], [-131.930004, 59.247598], [-131.997105, 59.363612], [-132.095394, 59.607111]], [[-133.244833, 60.448559], [-134.288232, 61.088933], [-134.646504, 61.35163], [-134.667459, 61.450125], [-134.736757, 61.516969], [-134.91331, 61.569731]]]}}, {"type": "Feature", "properties": {"name": "Thelon"}, "geometry": {"type": "MultiLineString", "coordinates": [[[-105.942494, 62.355522], [-105.663752, 62.410093], [-105.304626, 62.439031], [-104.772256, 62.460529], [-104.58604, 62.48647], [-104.544001, 62.500165], [-104.549866, 62.516779], [-104.597951, 62.551169], [-104.733627, 62.5891], [-104.757089, 62.604732], [-104.734609, 62.622328], [-104.743394, 62.658501], [-104.762618, 62.682272], [-104.771816, 62.708782], [-104.743704, 62.728988], [-104.761274, 62.761596], [-104.818661, 62.808053], [-104.801065, 62.86376], [-104.768819, 62.905799], [-104.767217, 62.936831], [-104.81693, 62.947993], [-104.845662, 62.982771], [-104.833596, 63.071499]], [[-104.705722, 63.26973], [-104.681383, 63.351973], [-104.611981, 63.440288], [-104.489327, 63.56209], [-104.452223, 63.629967], [-104.500618, 63.643919], [-104.467752, 63.691203], [-104.353573, 63.771767], [-104.214383, 63.835949], [-104.050155, 63.883749], [-103.900629, 63.974493], [-103.765805, 64.108232], [-103.696275, 64.192568], [-103.692089, 64.227449], [-103.532357, 64.268816], [-103.217131, 64.316617], [-102.966113, 64.327624], [-102.779354, 64.301838], [-102.676182, 64.262951], [-102.656545, 64.210913], [-102.626082, 64.178202], [-102.584741, 64.164714], [-102.40886, 64.183602], [-102.098414, 64.234788], [-101.910208, 64.298091], [-101.811196, 64.411263]], [[-94.224502, 64.076089], [-93.655802, 63.972788]], [[-101.536226, 64.49317], [-100.795082, 64.604119]], [[-97.103266, 64.761319], [-96.727708, 64.697033], [-96.580275, 64.655046], [-96.535833, 64.613963], [-96.503587, 64.553554], [-96.483537, 64.473817], [-96.423489, 64.400824], [-96.273395, 64.301398]]]}}, {"type": "Feature", "properties": {"name": "Usumacinta"}, "geometry": {"type": "MultiLineString", "coordinates": [[[-90.416982, 16.390989], [-90.471087, 16.439565], [-90.575784, 16.467832], [-90.634075, 16.510724], [-90.634385, 16.565139], [-90.659965, 16.630923], [-90.710711, 16.708128], [-90.816027, 16.787089], [-90.975811, 16.867808], [-91.111875, 16.976199], [-91.224168, 17.112263], [-91.319201, 17.199777], [-91.392323, 17.236416], [-91.416869, 17.263985], [-91.417464, 17.286645], [-91.399506, 17.314499], [-91.413639, 17.350311], [-91.466091, 17.384417], [-91.49627, 17.420436], [-91.504151, 17.458315], [-91.488338, 17.48069], [-91.448779, 17.487512], [-91.449503, 17.514823], [-91.490457, 17.562623], [-91.473248, 17.589159], [-91.397801, 17.59443], [-91.365968, 17.626728], [-91.377699, 17.686104], [-91.400049, 17.710909], [-91.433018, 17.701194], [-91.446273, 17.714681], [-91.439865, 17.751346], [-91.455782, 17.779096], [-91.494022, 17.797932], [-91.52415, 17.793695], [-91.546164, 17.766409], [-91.567041, 17.772972], [-91.58673, 17.813332], [-91.612878, 17.818189], [-91.645486, 17.787442], [-91.651532, 17.764342], [-91.640008, 17.750131], [-91.641352, 17.735869], [-91.690496, 17.731528], [-91.73194, 17.761552], [-91.789818, 17.844131], [-91.849814, 17.877591], [-91.911878, 17.861882], [-91.992881, 17.887436], [-92.092797, 17.954305], [-92.137497, 18.012648], [-92.126955, 18.062464], [-92.144267, 18.121788], [-92.189432, 18.190544], [-92.212273, 18.204471]], [[-92.212273, 18.204471], [-92.295989, 18.255423], [-92.463834, 18.316453], [-92.572199, 18.335367], [-92.621085, 18.312216], [-92.651755, 18.333093], [-92.670359, 18.430503], [-92.678575, 18.54308], [-92.688316, 18.578169], [-92.710124, 18.611681]], [[-92.212273, 18.204471], [-92.262761, 18.360585], [-92.309605, 18.426059], [-92.371359, 18.467194], [-92.422441, 18.5306], [-92.485305, 18.664804]]]}}, {"type": "Feature", "properties": {"name": "Yukon"}, "geometry": {"type": "MultiLineString", "coordinates": [[[-134.915532, 61.56787], [-134.870289, 61.628409], [-134.885482, 61.685382], [-134.946047, 61.758918], [-134.964444, 61.815969], [-134.940724, 61.856431], [-134.939717, 61.888522], [-134.961498, 61.91219], [-135.121282, 61.9572], [-135.419041, 62.02363], [-135.628693, 62.048719], [-135.750236, 62.032493], [-135.928132, 62.045567], [-136.307127, 62.121221], [-136.362214, 62.145458], [-136.377768, 62.196824], [-136.35379, 62.275424], [-136.583415, 62.427895], [-137.356081, 62.781207], [-137.451708, 62.808595], [-137.73275, 62.819525], [-138.398213, 62.80056], [-139.417815, 63.010573], [-139.531969, 63.071138], [-139.564421, 63.161261], [-139.544526, 63.233608], [-139.472386, 63.28823], [-139.506079, 63.352722], [-139.645683, 63.427033], [-139.730354, 63.512584], [-139.76012, 63.609348], [-139.759448, 63.674047], [-139.728442, 63.706629], [-139.723146, 63.750166], [-139.743609, 63.804633], [-139.742834, 63.865353], [-139.72082, 63.932403], [-139.65346, 63.983097], [-139.540779, 64.017462], [-139.481636, 64.056969], [-139.476106, 64.101566], [-139.51135, 64.158203], [-139.587469, 64.226829], [-139.848978, 64.296593], [-140.295901, 64.367441], [-140.452636, 64.404777], [-140.477337, 64.425629], [-140.464573, 64.498492], [-140.479249, 64.526088], [-140.545163, 64.517613], [-140.588829, 64.528155], [-140.610301, 64.557765], [-140.64911, 64.571795], [-140.70523, 64.570297], [-140.730216, 64.584895], [-140.724015, 64.615643], [-140.745796, 64.627322], [-140.795535, 64.620035], [-140.88217, 64.64068], [-140.933149, 64.674476], [-141.005729, 64.689282], [-141.064795, 64.725559], [-141.059421, 64.749381], [-141.092545, 64.774961], [-141.164246, 64.802298], [-141.176028, 64.832994], [-141.127918, 64.867152], [-141.12877, 64.887771], [-141.178586, 64.894902], [-141.198017, 64.913299], [-141.18701, 64.942961], [-141.229927, 64.953607], [-141.326691, 64.945183], [-141.373458, 64.965906], [-141.368601, 65.040733], [-141.404464, 65.086002], [-141.533448, 65.128531], [-141.767517, 65.183412], [-141.923761, 65.240669], [-142.002154, 65.300304], [-142.14739, 65.33472], [-142.359445, 65.34397], [-142.502382, 65.363039], [-142.576279, 65.391978], [-142.654827, 65.393011], [-142.738026, 65.366062], [-142.928867, 65.354822], [-143.22735, 65.359215], [-143.447363, 65.383245], [-143.588904, 65.426808], [-143.672517, 65.471844], [-143.698226, 65.518275], [-143.781218, 65.55419], [-143.921571, 65.57946], [-144.022857, 65.613205], [-144.085127, 65.655424], [-144.087375, 65.721699], [-144.029679, 65.812004], [-144.016604, 65.876031], [-144.048153, 65.913729], [-144.250776, 66.026771], [-144.624423, 66.215132], [-144.832162, 66.334944], [-144.873942, 66.386129], [-145.002849, 66.453438], [-145.218908, 66.536843], [-145.453416, 66.586634], [-145.828016, 66.61066]], [[-163.258841, 62.016112], [-163.240599, 61.939527], [-163.241555, 61.885525], [-163.289381, 61.84713], [-163.388342, 61.829146], [-163.538514, 61.831575], [-163.644037, 61.816201], [-163.704912, 61.783077], [-163.773822, 61.776746], [-163.836273, 61.797107], [-163.844696, 61.834934], [-163.860199, 61.851264], [-163.898311, 61.852556], [-163.958979, 61.83881], [-164.001689, 61.85147], [-164.026417, 61.89059], [-164.086801, 61.878833], [-164.182815, 61.81615], [-164.264102, 61.789045], [-164.330662, 61.797572], [-164.429209, 61.781862], [-164.559769, 61.741916], [-164.646405, 61.744449], [-164.745753, 61.761553], [-164.831329, 61.739048], [-164.879414, 61.697733], [-164.869182, 61.665022], [-164.76632, 61.628693], [-164.742833, 61.590608], [-164.778128, 61.55092], [-164.888354, 61.50684], [-165.007416, 61.480382], [-165.188232, 61.39217], [-165.205854, 61.330469], [-165.201461, 61.286337], [-165.243939, 61.268767]], [[-163.258841, 62.016112], [-163.434489, 62.060502], [-163.730879, 62.092257], [-163.903711, 62.133572], [-163.95301, 62.184473], [-163.947946, 62.248294], [-163.888518, 62.325137], [-163.859424, 62.391644], [-163.860742, 62.447868], [-163.929859, 62.531558], [-164.066802, 62.64274], [-164.221883, 62.710074], [-164.481686, 62.745318], [-164.522355, 62.737153], [-164.589431, 62.709351]], [[-145.828016, 66.61066], [-146.664221, 66.508111], [-147.015388, 66.444575], [-147.158583, 66.386026], [-147.323198, 66.352462], [-147.509259, 66.343832], [-147.596489, 66.32112], [-147.58481, 66.284275], [-147.745679, 66.264224], [-148.079095, 66.260917], [-148.364194, 66.22464], [-148.600976, 66.155342], [-148.728668, 66.103717], [-148.764377, 66.06744], [-148.790422, 66.061524], [-148.812462, 66.085269], [-148.87282, 66.090333], [-148.971444, 66.076691], [-149.013922, 66.056253], [-149.000176, 66.028916], [-149.053765, 66.007031], [-149.174584, 65.990649], [-149.251349, 65.956595], [-149.284009, 65.904918], [-149.438134, 65.889364], [-149.713673, 65.909879], [-149.920378, 65.890087], [-150.058199, 65.829884], [-150.0482, 65.798284], [-149.890303, 65.795235], [-149.827051, 65.755418], [-149.85847, 65.678885], [-149.92968, 65.649998], [-150.040733, 65.66886], [-150.125275, 65.640593], [-150.183256, 65.565249], [-150.324359, 65.520187], [-150.548583, 65.505408], [-150.791901, 65.446316], [-151.054314, 65.342937], [-151.401115, 65.25979], [-152.047845, 65.165377], [-152.349222, 65.123932], [-152.534276, 65.134164], [-152.698943, 65.182223], [-152.856556, 65.201318], [-153.007115, 65.191473], [-153.126436, 65.165635], [-153.214596, 65.123881], [-153.331178, 65.111633], [-153.476182, 65.128841], [-153.739861, 65.083805], [-154.122241, 64.976448], [-154.402482, 64.927045], [-154.580662, 64.935572], [-155.134065, 64.867049], [-155.381466, 64.789637], [-155.575485, 64.75566], [-155.754002, 64.763722], [-155.998354, 64.720753], [-156.202424, 64.712691], [-156.424994, 64.680419], [-156.732598, 64.664219], [-156.759573, 64.69569], [-156.809157, 64.718427], [-156.917161, 64.729538], [-156.992763, 64.755066], [-157.035887, 64.794908], [-157.271428, 64.825527], [-157.396253, 64.819661], [-157.509528, 64.843639], [-157.76915, 64.850331], [-157.84191, 64.869271], [-157.913353, 64.85754], [-158.002547, 64.800954], [-158.168609, 64.681324], [-158.286431, 64.642773], [-158.500888, 64.463559], [-158.6785, 64.342817], [-158.690567, 64.310804], [-158.659199, 64.222747], [-158.67372, 64.138333], [-158.73413, 64.057563], [-158.825675, 63.994105], [-159.00972, 63.92491], [-159.148782, 63.883956], [-159.202525, 63.847576], [-159.217304, 63.802101], [-159.255933, 63.767322], [-159.318461, 63.743086], [-159.385899, 63.678956], [-159.458194, 63.574879], [-159.478891, 63.494109], [-159.447962, 63.436748], [-159.502222, 63.372308], [-159.641645, 63.300736], [-159.725103, 63.213506], [-159.752543, 63.110567], [-159.825665, 63.034912], [-159.944521, 62.986543], [-160.018909, 62.915695], [-160.048856, 62.822471], [-160.090404, 62.756273], [-160.14363, 62.717102], [-160.170244, 62.66031], [-160.170347, 62.585896], [-160.133037, 62.522954], [-160.058313, 62.471484], [-159.975243, 62.370664], [-159.955631, 62.279868], [-159.912637, 62.253461], [-159.805253, 62.236098], [-159.744327, 62.214265], [-159.729909, 62.187962], [-159.74244, 62.154449], [-159.781921, 62.113728], [-159.85171, 62.085797], [-159.951807, 62.070656], [-160.032164, 62.033061], [-160.092832, 61.973013], [-160.33597, 61.940716], [-160.761655, 61.936116], [-161.06714, 61.906764], [-161.252503, 61.852607], [-161.338648, 61.805013], [-161.325625, 61.764034], [-161.346399, 61.719954], [-161.40097, 61.672773], [-161.527577, 61.637168], [-161.75361, 61.616549], [-161.920395, 61.575725], [-161.955664, 61.596887], [-161.962951, 61.656056], [-162.022663, 61.744914], [-162.134749, 61.863459], [-162.249393, 61.923275], [-162.366595, 61.924386], [-162.440002, 61.947847], [-162.469612, 61.993658], [-162.527438, 62.005854], [-162.61348, 61.984382], [-162.667947, 61.956839], [-162.690839, 61.923171], [-162.739596, 61.918133], [-162.814217, 61.941646], [-162.888269, 61.940044], [-162.961753, 61.913224], [-163.043014, 61.907514], [-163.132001, 61.922887], [-163.20396, 61.959061], [-163.258841, 62.016112]], [[-145.828016, 66.61066], [-145.832902, 66.610973]], [[-145.82546, 66.610973], [-145.828016, 66.61066]]]}}, {"type": "Feature", "properties": {"name": null}, "geometry": {"type": "LineString", "coordinates": [[-72.991327, 46.17744], [-73.078557, 46.160128], [-73.146305, 46.123542], [-73.177182, 46.070625], [-73.163952, 46.044167]]}}, {"type": "Feature", "properties": {"name": null}, "geometry": {"type": "MultiLineString", "coordinates": [[[-103.447427, 61.365609], [-103.468123, 61.282875], [-103.54972, 61.21231], [-103.699091, 61.126295], [-103.759449, 61.050434], [-103.716429, 60.951784]], [[-103.157677, 61.836226], [-103.235502, 61.772716], [-103.250979, 61.733907], [-103.219508, 61.681042]], [[-99.617583, 62.3009], [-98.574158, 62.251989], [-98.209271, 62.252066], [-98.175113, 62.284829], [-98.205964, 62.37981], [-98.349676, 62.61561]], [[-101.366262, 62.34989], [-101.318358, 62.344825]], [[-100.734828, 62.355522], [-100.551996, 62.355109]], [[-102.736643, 62.410299], [-102.919371, 62.318522]], [[-101.83104, 62.520008], [-101.529404, 62.664031]], [[-102.034671, 62.924583], [-102.11849, 62.91461], [-102.180967, 62.88363], [-102.250084, 62.828284], [-102.378577, 62.790354], [-102.660369, 62.75958]], [[-97.630159, 62.979309], [-97.609799, 63.047108], [-97.567011, 63.091601], [-97.459007, 63.157463]], [[-97.287545, 63.513746], [-97.235429, 63.573329], [-97.182357, 63.593018], [-97.11094, 63.592708], [-97.084017, 63.603508], [-97.070788, 63.634643], [-97.01353, 63.64025], [-96.951906, 63.636633]], [[-95.878225, 63.656477], [-95.811381, 63.668982], [-95.798927, 63.69389], [-95.808901, 63.718747], [-95.798927, 63.746135], [-95.72255, 63.765669], [-95.677462, 63.798173], [-95.677462, 63.845638], [-95.630566, 63.898116], [-95.536747, 63.955528], [-95.491659, 64.000693], [-95.497111, 64.050018]]]}}, {"type": "Feature", "properties": {"name": null}, "geometry": {"type": "LineString", "coordinates": [[-101.16276, 62.366684], [-101.318358, 62.344825]]}}]}