{"type": "FeatureCollection", "features": [{"type": "Feature", "properties": {"name": "Montpelier", "state": "Vermont"}, "geometry": {"type": "Point", "coordinates": [-72.575813, 44.259972]}}, {"type": "Feature", "properties": {"name": "Dover", "state": "Delaware"}, "geometry": {"type": "Point", "coordinates": [-75.524703, 39.158087]}}, {"type": "Feature", "properties": {"name": "Annapolis", "state": "Maryland"}, "geometry": {"type": "Point", "coordinates": [-76.492499, 38.97833]}}, {"type": "Feature", "properties": {"name": "Carson City", "state": "Nevada"}, "geometry": {"type": "Point", "coordinates": [-119.766395, 39.163849]}}, {"type": "Feature", "properties": {"name": "Little Rock", "state": "Arkansas"}, "geometry": {"type": "Point", "coordinates": [-92.331093, 34.736083]}}, {"type": "Feature", "properties": {"name": "Jefferson City", "state": "Missouri"}, "geometry": {"type": "Point", "coordinates": [-92.173325, 38.576623]}}, {"type": "Feature", "properties": {"name": "Hartford", "state": "Connecticut"}, "geometry": {"type": "Point", "coordinates": [-72.681913, 41.771966]}}, {"type": "Feature", "properties": {"name": "Providence", "state": "Rhode Island"}, "geometry": {"type": "Point", "coordinates": [-71.416926, 41.823048]}}, {"type": "Feature", "properties": {"name": "Springfield", "state": "Illinois"}, "geometry": {"type": "Point", "coordinates": [-89.650017, 39.82001]}}, {"type": "Feature", "properties": {"name": "Frankfort", "state": "Kentucky"}, "geometry": {"type": "Point", "coordinates": [-84.873357, 38.200807]}}, {"type": "Feature", "properties": {"name": "Madison", "state": "Wisconsin"}, "geometry": {"type": "Point", "coordinates": [-89.401117, 43.073016]}}, {"type": "Feature", "properties": {"name": "Trenton", "state": "New Jersey"}, "geometry": {"type": "Point", "coordinates": [-74.743355, 40.216963]}}, {"type": "Feature", "properties": {"name": "Lansing", "state": "Michigan"}, "geometry": {"type": "Point", "coordinates": [-84.546736, 42.733527]}}, {"type": "Feature", "properties": {"name": "Lincoln", "state": "Nebraska"}, "geometry": {"type": "Point", "coordinates": [-96.680001, 40.819975]}}, {"type": "Feature", "properties": {"name": "Concord", "state": "New Hampshire"}, "geometry": {"type": "Point", "coordinates": [-71.538047, 43.208072]}}, {"type": "Feature", "properties": {"name": "Columbus", "state": "Ohio"}, "geometry": {"type": "Point", "coordinates": [-82.991956, 39.98192]}}, {"type": "Feature", "properties": {"name": "Albany", "state": "New York"}, "geometry": {"type": "Point", "coordinates": [-73.819949, 42.670017]}}, {"type": "Feature", "properties": {"name": "Harrisburg", "state": "Pennsylvania"}, "geometry": {"type": "Point", "coordinates": [-76.884749, 40.2736]}}, {"type": "Feature", "properties": {"name": "St.  Paul", "state": "Minnesota"}, "geometry": {"type": "Point", "coordinates": [-93.084975, 44.943987]}}, {"type": "Feature", "properties": {"name": "Olympia", "state": "Washington"}, "geometry": {"type": "Point", "coordinates": [-122.899434, 47.038045]}}, {"type": "Feature", "properties": {"name": "Salem", "state": "Oregon"}, "geometry": {"type": "Point", "coordinates": [-123.023897, 44.92807]}}, {"type": "Feature", "properties": {"name": "Topeka", "state": "Kansas"}, "geometry": {"type": "Point", "coordinates": [-95.669985, 39.050005]}}, {"type": "Feature", "properties": {"name": "Baton Rouge", "state": "Louisiana"}, "geometry": {"type": "Point", "coordinates": [-91.140158, 30.457946]}}, {"type": "Feature", "properties": {"name": "Austin", "state": "Texas"}, "geometry": {"type": "Point", "coordinates": [-97.744724, 30.268896]}}, {"type": "Feature", "properties": {"name": "Montgomery", "state": "Alabama"}, "geometry": {"type": "Point", "coordinates": [-86.279189, 32.361602]}}, {"type": "Feature", "properties": {"name": "Tallahassee", "state": "Florida"}, "geometry": {"type": "Point", "coordinates": [-84.280034, 30.449988]}}, {"type": "Feature", "properties": {"name": "Columbia", "state": "South Carolina"}, "geometry": {"type": "Point", "coordinates": [-80.899982, 34.039975]}}, {"type": "Feature", "properties": {"name": "Indianapolis", "state": "Indiana"}, "geometry": {"type": "Point", "coordinates": [-86.171994, 39.751934]}}, {"type": "Feature", "properties": {"name": "Richmond", "state": "Virginia"}, "geometry": {"type": "Point", "coordinates": [-77.451932, 37.551965]}}, {"type": "Feature", "properties": {"name": "Charleston", "state": "West Virginia"}, "geometry": {"type": "Point", "coordinates": [-81.632728, 38.349738]}}, {"type": "Feature", "properties": {"name": "Augusta", "state": "Maine"}, "geometry": {"type": "Point", "coordinates": [-69.779989, 44.310563]}}, {"type": "Feature", "properties": {"name": "Helena", "state": "Montana"}, "geometry": {"type": "Point", "coordinates": [-112.035291, 46.592749]}}, {"type": "Feature", "properties": {"name": "Bismarck", "state": "North Dakota"}, "geometry": {"type": "Point", "coordinates": [-100.783316, 46.808317]}}, {"type": "Feature", "properties": {"name": "Boise", "state": "Idaho"}, "geometry": {"type": "Point", "coordinates": [-116.22749, 43.60859]}}, {"type": "Feature", "properties": {"name": "Sacramento", "state": "California"}, "geometry": {"type": "Point", "coordinates": [-121.471984, 38.576967]}}, {"type": "Feature", "properties": {"name": "Santa Fe", "state": "New Mexico"}, "geometry": {"type": "Point", "coordinates": [-105.937239, 35.686929]}}, {"type": "Feature", "properties": {"name": "Salt Lake City", "state": "Utah"}, "geometry": {"type": "Point", "coordinates": [-111.931998, 40.776962]}}, {"type": "Feature", "properties": {"name": "Cheyenne", "state": "Wyoming"}, "geometry": {"type": "Point", "coordinates": [-104.819711, 41.140007]}}, {"type": "Feature", "properties": {"name": "Des Moines", "state": "Iowa"}, "geometry": {"type": "Point", "coordinates": [-93.619981, 41.57998]}}, {"type": "Feature", "properties": {"name": "Oklahoma City", "state": "Oklahoma"}, "geometry": {"type": "Point", "coordinates": [-97.520629, 35.471989]}}, {"type": "Feature", "properties": {"name": "Pierre", "state": "South Dakota"}, "geometry": {"type": "Point", "coordinates": [-100.350552, 44.368337]}}, {"type": "Feature", "properties": {"name": "Jackson", "state": "Mississippi"}, "geometry": {"type": "Point", "coordinates": [-90.184997, 32.298815]}}, {"type": "Feature", "properties": {"name": "Raleigh", "state": "North Carolina"}, "geometry": {"type": "Point", "coordinates": [-78.644693, 35.818781]}}, {"type": "Feature", "properties": {"name": "Nashville", "state": "Tennessee"}, "geometry": {"type": "Point", "coordinates": [-86.781931, 36.17192]}}, {"type": "Feature", "properties": {"name": "Juneau", "state": "Alaska"}, "geometry": {"type": "Point", "coordinates": [-134.419997, 58.314127]}}, {"type": "Feature", "properties": {"name": "Honolulu", "state": "Hawaii"}, "geometry": {"type": "Point", "coordinates": [-157.859944, 21.308822]}}, {"type": "Feature", "properties": {"name": "Phoenix", "state": "Arizona"}, "geometry": {"type": "Point", "coordinates": [-112.071938, 33.541926]}}, {"type": "Feature", "properties": {"name": "Boston", "state": "Massachusetts"}, "geometry": {"type": "Point", "coordinates": [-71.07196, 42.331906]}}, {"type": "Feature", "properties": {"name": "Denver", "state": "Colorado"}, "geometry": {"type": "Point", "coordinates": [-104.985962, 39.741134]}}, {"type": "Feature", "properties": {"name": "Atlanta", "state": "Georgia"}, "geometry": {"type": "Point", "coordinates": [-84.401895, 33.83196]}}]}